{"type": "FeatureCollection", "features": [{"type": "Feature", "properties": {"layer": "geology", "rock_type": "Ultramafic", "site": "sorowako"}, "geometry": {"type": "Polygon", "coordinates": [[[121.40607260759418, -2.55], [121.3881088518761, -2.5118911481239024], [121.35, -2.5024851784760704], [121.31493756402473, -2.514937564024737], [121.29684392811508, -2.55], [121.31251215421946, -2.587487845780531], [121.35, -2.606735096996535], [121.37916033531772, -2.5791603353177224], [121.40607260759418, -2.55]]]}}, {"type": "Feature", "properties": {"layer": "geology", "rock_type": "Ultramafic", "site": "morowali"}, "geometry": {"type": "Polygon", "coordinates": [[[122.01509143363667, -2.82], [122.00128103269408, -2.778718967305909], [121.96, -2.779274452923746], [121.92552149505204, -2.78552149505205], [121.9128480077955, -2.82], [121.92502981498924, -2.8549701850107487], [121.96, -2.870326665361269], [121.99446463920604, -2.8544646392060464], [122.01509143363667, -2.82]]]}}, {"type": "Feature", "properties": {"layer": "geology", "rock_type": "Ultramafic", "site": "weda_bay"}, "geometry": {"type": "Polygon", "coordinates": [[[128.00028087258318, 0.47], [127.97915007979665, 0.49915007979665366], [127.95, 0.5269427053155445], [127.9156361320093, 0.5043638679907099], [127.89499879459947, 0.47], [127.91995862450803, 0.43995862450802076], [127.95, 0.42651696322937105], [127.9796925503924, 0.4403074496076051], [128.00028087258318, 0.47]]]}}, {"type": "Feature", "properties": {"layer": "geology", "rock_type": "Ultramafic", "site": "pomalaa"}, "geometry": {"type": "Polygon", "coordinates": [[[121.65707271789782, -4.18], [121.63838337486608, -4.151616625133922], [121.61, -4.135087784414114], [121.56891137380445, -4.138911373804448], [121.56458440868994, -4.18], [121.56950089882977, -4.220499101170222], [121.61, -4.235487249954785], [121.65050782778937, -4.2205078277893735], [121.65707271789782, -4.18]]]}}, {"type": "Feature", "properties": {"layer": "geology", "rock_type": "Ultramafic", "site": "gag_island"}, "geometry": {"type": "Polygon", "coordinates": [[[129.92475630551124, -0.07], [129.90888887392958, -0.04111112607041544], [129.88, -0.021164825029366292], [129.84398163167677, -0.03398163167677788], [129.837186045354, -0.07], [129.84787801703237, -0.10212198296763488], [129.88, -0.12639570155119134], [129.91403929279153, -0.10403929279152413], [129.92475630551124, -0.07]]]}}, {"type": "Feature", "properties": {"layer": "geology", "rock_type": "Ultramafic", "site": "obi_island"}, "geometry": {"type": "Polygon", "coordinates": [[[127.7501064161269, -1.55], [127.74260680112647, -1.5173931988735165], [127.71, -1.5096123781222015], [127.67078839660476, -1.510788396604766], [127.65588680338925, -1.55], [127.67356453401317, -1.586435465986822], [127.71, -1.5914683721403728], [127.73862798861742, -1.5786279886174233], [127.7501064161269, -1.55]]]}}, {"type": "Feature", "properties": {"layer": "geology", "rock_type": "Ultramafic", "site": "konawe"}, "geometry": {"type": "Polygon", "coordinates": [[[122.1633339595975, -3.83], [122.14355105470172, -3.796448945298284], [122.11, -3.774445583343417], [122.0749198550026, -3.7949198550026066], [122.06783580843329, -3.83], [122.07330121993196, -3.866698780068034], [122.11, -3.888534215550761], [122.14329164746856, -3.86329164746856], [122.1633339595975, -3.83]]]}}, {"type": "Feature", "properties": {"layer": "geology", "rock_type": "Ultramafic", "site": "tapunopaka"}, "geometry": {"type": "Polygon", "coordinates": [[[122.23840535849924, -3.61], [122.21789003154335, -3.572109968456659], [122.18, -3.5553608913671098], [122.14856450872001, -3.5785645087200026], [122.13213675612965, -3.61], [122.1486010859207, -3.6413989140793066], [122.18, -3.6627567118681776], [122.21581236775239, -3.6458123677523875], [122.23840535849924, -3.61]]]}}]}