{"type": "FeatureCollection", "features": [{"type": "Feature", "properties": {"layer": "mpm", "prospectivity_score": 93, "site": "sorowako"}, "geometry": {"type": "Polygon", "coordinates": [[[121.36709983707381, -2.55716927599486], [121.36256065883563, -2.550825106158898], [121.35523147123818, -2.550818920533824], [121.35045234014936, -2.55716927599486], [121.35505570832028, -2.563824061759793], [121.36239364386061, -2.563224167408462], [121.36709983707381, -2.55716927599486]]]}}, {"type": "Feature", "properties": {"layer": "mpm", "prospectivity_score": 96, "site": "sorowako"}, "geometry": {"type": "Polygon", "coordinates": [[[121.36232566512624, -2.545036581860246], [121.35770949904581, -2.539192380020971], [121.3495527814155, -2.5367529343408175], [121.347716282651, -2.545036581860246], [121.34986981330995, -2.552771114030865], [121.35767974078834, -2.5508292408856366], [121.36232566512624, -2.545036581860246]]]}}, {"type": "Feature", "properties": {"layer": "mpm", "prospectivity_score": 87, "site": "morowali"}, "geometry": {"type": "Polygon", "coordinates": [[[121.96095925745597, -2.811507597814249], [121.95694311299745, -2.8058716789718465], [121.94950069940754, -2.8042528781879916], [121.94677882256778, -2.811507597814249], [121.94939451027787, -2.8189462424083067], [121.95722529336696, -2.8176322673935457], [121.96095925745597, -2.811507597814249]]]}}, {"type": "Feature", "properties": {"layer": "mpm", "prospectivity_score": 96, "site": "morowali"}, "geometry": {"type": "Polygon", "coordinates": [[[121.96044515306427, -2.8282313990137413], [121.95501640757996, -2.8218286825723564], [121.94705820213011, -2.820850099278929], [121.94174649253982, -2.8282313990137413], [121.94735343701332, -2.835101336930674], [121.95454611737146, -2.8338195489197213], [121.96044515306427, -2.8282313990137413]]]}}, {"type": "Feature", "properties": {"layer": "mpm", "prospectivity_score": 93, "site": "weda_bay"}, "geometry": {"type": "Polygon", "coordinates": [[[127.9659228890795, 0.47114289040477386], [127.96173917452487, 0.47806831329557575], [127.95319449046289, 0.4790172944439412], [127.94845723697163, 0.47114289040477386], [127.95355197150265, 0.4638876616891945], [127.96232845728993, 0.4631967998248663], [127.9659228890795, 0.47114289040477386]]]}}, {"type": "Feature", "properties": {"layer": "mpm", "prospectivity_score": 94, "site": "weda_bay"}, "geometry": {"type": "Polygon", "coordinates": [[[127.96700054618609, 0.46881004799110676], [127.96333523944749, 0.475886565433514], [127.95474777384584, 0.47660745727900783], [127.95190975323324, 0.46881004799110676], [127.9551842903785, 0.46176870751611315], [127.96365897483014, 0.4611728044177442], [127.96700054618609, 0.46881004799110676]]]}}, {"type": "Feature", "properties": {"layer": "mpm", "prospectivity_score": 87, "site": "pomalaa"}, "geometry": {"type": "Polygon", "coordinates": [[[121.6224439838323, -4.189767106786014], [121.61732473593696, -4.182811227340493], [121.60912784437629, -4.182525553584317], [121.60381377653792, -4.189767106786014], [121.60855474322604, -4.198001300297801], [121.61798835562449, -4.197872409247239], [121.6224439838323, -4.189767106786014]]]}}, {"type": "Feature", "properties": {"layer": "mpm", "prospectivity_score": 99, "site": "pomalaa"}, "geometry": {"type": "Polygon", "coordinates": [[[121.62331095580879, -4.173495130341875], [121.61938544914301, -4.16631984626363], [121.61138027130292, -4.166805039677456], [121.60780764962948, -4.173495130341875], [121.61124017681728, -4.180427871773288], [121.61958784232955, -4.18102096970233], [121.62331095580879, -4.173495130341875]]]}}, {"type": "Feature", "properties": {"layer": "mpm", "prospectivity_score": 88, "site": "gag_island"}, "geometry": {"type": "Polygon", "coordinates": [[[129.88821988441717, -0.06268305950083156], [129.88318527395018, -0.05527036491571832], [129.87510241673442, -0.05609583471793755], [129.87095704157997, -0.06268305950083156], [129.87486842226974, -0.0696755745852118], [129.88308521605921, -0.06992244873513274], [129.88821988441717, -0.06268305950083156]]]}}, {"type": "Feature", "properties": {"layer": "mpm", "prospectivity_score": 90, "site": "gag_island"}, "geometry": {"type": "Polygon", "coordinates": [[[129.89288394935073, -0.07235338443368579], [129.889867144855, -0.0662704273566742], [129.88254732076737, -0.06575803428842902], [129.87831067346656, -0.07235338443368579], [129.8819165510437, -0.08004125978819086], [129.8901994992649, -0.07901199623473867], [129.89288394935073, -0.07235338443368579]]]}}, {"type": "Feature", "properties": {"layer": "mpm", "prospectivity_score": 95, "site": "obi_island"}, "geometry": {"type": "Polygon", "coordinates": [[[127.71599894188775, -1.5443856484011835], [127.71163194392638, -1.538117816712676], [127.70453431315372, -1.5383600229780794], [127.69911446526383, -1.5443856484011835], [127.7041790569125, -1.5510265956837934], [127.71192837669416, -1.5511669167045095], [127.71599894188775, -1.5443856484011835]]]}}, {"type": "Feature", "properties": {"layer": "mpm", "prospectivity_score": 86, "site": "obi_island"}, "geometry": {"type": "Polygon", "coordinates": [[[127.70969089907422, -1.5453798822216709], [127.70622907847341, -1.5389360821766729], [127.69838643373814, -1.53823982311944], [127.69402328613262, -1.5453798822216709], [127.69815703600908, -1.5529172698457654], [127.70600727293915, -1.5514395038119213], [127.70969089907422, -1.5453798822216709]]]}}, {"type": "Feature", "properties": {"layer": "mpm", "prospectivity_score": 89, "site": "konawe"}, "geometry": {"type": "Polygon", "coordinates": [[[122.12259610726281, -3.8326149349842358], [122.11821239673405, -3.8249638514776714], [122.10936953988292, -3.8249497411405646], [122.10573959770593, -3.8326149349842358], [122.10992943328216, -3.8393103650136045], [122.11784836090305, -3.839635489935729], [122.12259610726281, -3.8326149349842358]]]}}, {"type": "Feature", "properties": {"layer": "mpm", "prospectivity_score": 98, "site": "konawe"}, "geometry": {"type": "Polygon", "coordinates": [[[122.11910446174772, -3.8256814843639897], [122.11579914398503, -3.8195493181082414], [122.10757140825588, -3.8175627943056116], [122.10422502661565, -3.8256814843639897], [122.10786832967868, -3.83328589143222], [122.11575147797353, -3.8317310906660267], [122.11910446174772, -3.8256814843639897]]]}}, {"type": "Feature", "properties": {"layer": "mpm", "prospectivity_score": 99, "site": "tapunopaka"}, "geometry": {"type": "Polygon", "coordinates": [[[122.19215036959258, -3.604266012395418], [122.18676270169898, -3.597508234835554], [122.1781020940199, -3.5960231774307037], [122.17570961584026, -3.604266012395418], [122.178758992331, -3.611371066109922], [122.18699218072217, -3.6114212592827197], [122.19215036959258, -3.604266012395418]]]}}, {"type": "Feature", "properties": {"layer": "mpm", "prospectivity_score": 92, "site": "tapunopaka"}, "geometry": {"type": "Polygon", "coordinates": [[[122.19662547492167, -3.6190090805837634], [122.19218988561748, -3.6129728903464025], [122.18455408089189, -3.611819669079715], [122.18069392568657, -3.6190090805837634], [122.18421786469932, -3.626780835615673], [122.19267919542187, -3.625892780262975], [122.19662547492167, -3.6190090805837634]]]}}]}