{"type": "FeatureCollection", "features": [{"type": "Feature", "properties": {"layer": "iron_oxide", "intensity": 29.244005314727374, "site": "sorowako"}, "geometry": {"type": "Point", "coordinates": [121.38513699290469, -2.51953668737524]}}, {"type": "Feature", "properties": {"layer": "iron_oxide", "intensity": 48.44175585791335, "site": "sorowako"}, "geometry": {"type": "Point", "coordinates": [121.3706990343001, -2.5277734786831725]}}, {"type": "Feature", "properties": {"layer": "iron_oxide", "intensity": 40.50872067882524, "site": "sorowako"}, "geometry": {"type": "Point", "coordinates": [121.3720951117673, -2.587657351344298]}}, {"type": "Feature", "properties": {"layer": "iron_oxide", "intensity": 90.07174086568564, "site": "sorowako"}, "geometry": {"type": "Point", "coordinates": [121.35509909465017, -2.5438978458481336]}}, {"type": "Feature", "properties": {"layer": "iron_oxide", "intensity": 64.32485507655485, "site": "sorowako"}, "geometry": {"type": "Point", "coordinates": [121.35413231324442, -2.5198315997913188]}}, {"type": "Feature", "properties": {"layer": "iron_oxide", "intensity": 50.34427403714871, "site": "sorowako"}, "geometry": {"type": "Point", "coordinates": [121.35348113029558, -2.5788948769472313]}}, {"type": "Feature", "properties": {"layer": "iron_oxide", "intensity": 75.96018202603884, "site": "sorowako"}, "geometry": {"type": "Point", "coordinates": [121.36452702103378, -2.5674340910280122]}}, {"type": "Feature", "properties": {"layer": "iron_oxide", "intensity": 36.98528503065625, "site": "sorowako"}, "geometry": {"type": "Point", "coordinates": [121.37383115087695, -2.580462207629224]}}, {"type": "Feature", "properties": {"layer": "iron_oxide", "intensity": 74.10960607738384, "site": "sorowako"}, "geometry": {"type": "Point", "coordinates": [121.36722693752692, -2.5489279510343468]}}, {"type": "Feature", "properties": {"layer": "iron_oxide", "intensity": 34.37508749866174, "site": "sorowako"}, "geometry": {"type": "Point", "coordinates": [121.38953909571815, -2.5269844167491753]}}, {"type": "Feature", "properties": {"layer": "iron_oxide", "intensity": 41.9286324748296, "site": "sorowako"}, "geometry": {"type": "Point", "coordinates": [121.31406543996974, -2.522284759776384]}}, {"type": "Feature", "properties": {"layer": "iron_oxide", "intensity": 45.18039731477363, "site": "sorowako"}, "geometry": {"type": "Point", "coordinates": [121.35003539697215, -2.516786950405426]}}, {"type": "Feature", "properties": {"layer": "iron_oxide", "intensity": 39.04925558912184, "site": "sorowako"}, "geometry": {"type": "Point", "coordinates": [121.31551071434309, -2.5468390937785657]}}, {"type": "Feature", "properties": {"layer": "iron_oxide", "intensity": 37.17747222732411, "site": "sorowako"}, "geometry": {"type": "Point", "coordinates": [121.37288052598737, -2.5173345695959783]}}, {"type": "Feature", "properties": {"layer": "iron_oxide", "intensity": 56.44195652521815, "site": "sorowako"}, "geometry": {"type": "Point", "coordinates": [121.351139758877, -2.518315130593228]}}, {"type": "Feature", "properties": {"layer": "iron_oxide", "intensity": 64.8025059865154, "site": "sorowako"}, "geometry": {"type": "Point", "coordinates": [121.36878997397571, -2.550560414181142]}}, {"type": "Feature", "properties": {"layer": "iron_oxide", "intensity": 58.637043821319274, "site": "sorowako"}, "geometry": {"type": "Point", "coordinates": [121.36579765322765, -2.52343351694962]}}, {"type": "Feature", "properties": {"layer": "iron_oxide", "intensity": 42.80763648390716, "site": "sorowako"}, "geometry": {"type": "Point", "coordinates": [121.3485576720945, -2.514567768349472]}}, {"type": "Feature", "properties": {"layer": "iron_oxide", "intensity": 71.98326029021234, "site": "sorowako"}, "geometry": {"type": "Point", "coordinates": [121.33203794043968, -2.534065753497386]}}, {"type": "Feature", "properties": {"layer": "iron_oxide", "intensity": 34.34496263533482, "site": "sorowako"}, "geometry": {"type": "Point", "coordinates": [121.31213739656239, -2.5566183472460637]}}, {"type": "Feature", "properties": {"layer": "iron_oxide", "intensity": 56.866898565439975, "site": "sorowako"}, "geometry": {"type": "Point", "coordinates": [121.37171310043492, -2.53436693408703]}}, {"type": "Feature", "properties": {"layer": "iron_oxide", "intensity": 83.32744235119242, "site": "sorowako"}, "geometry": {"type": "Point", "coordinates": [121.3476917687139, -2.5454353875853206]}}, {"type": "Feature", "properties": {"layer": "iron_oxide", "intensity": 41.496541389438924, "site": "sorowako"}, "geometry": {"type": "Point", "coordinates": [121.37988476348157, -2.5219270595113836]}}, {"type": "Feature", "properties": {"layer": "iron_oxide", "intensity": 29.668397870895873, "site": "sorowako"}, "geometry": {"type": "Point", "coordinates": [121.31143961601971, -2.5128358950237772]}}, {"type": "Feature", "properties": {"layer": "iron_oxide", "intensity": 55.02619010994258, "site": "sorowako"}, "geometry": {"type": "Point", "coordinates": [121.3247438553535, -2.53795219113925]}}, {"type": "Feature", "properties": {"layer": "iron_oxide", "intensity": 60.1829652971591, "site": "sorowako"}, "geometry": {"type": "Point", "coordinates": [121.37116077602955, -2.5339737055279286]}}, {"type": "Feature", "properties": {"layer": "iron_oxide", "intensity": 61.75325273315488, "site": "sorowako"}, "geometry": {"type": "Point", "coordinates": [121.3614272025644, -2.569765655306912]}}, {"type": "Feature", "properties": {"layer": "iron_oxide", "intensity": 49.69969059712181, "site": "sorowako"}, "geometry": {"type": "Point", "coordinates": [121.35979133098307, -2.512386655966999]}}, {"type": "Feature", "properties": {"layer": "iron_oxide", "intensity": 40.4106566733063, "site": "sorowako"}, "geometry": {"type": "Point", "coordinates": [121.31419829408038, -2.559573348683738]}}, {"type": "Feature", "properties": {"layer": "iron_oxide", "intensity": 54.04381706697887, "site": "sorowako"}, "geometry": {"type": "Point", "coordinates": [121.3695249176598, -2.574468870872457]}}, {"type": "Feature", "properties": {"layer": "iron_oxide", "intensity": 45.156455886743025, "site": "sorowako"}, "geometry": {"type": "Point", "coordinates": [121.31481620423457, -2.535922205549723]}}, {"type": "Feature", "properties": {"layer": "iron_oxide", "intensity": 71.51090327018031, "site": "sorowako"}, "geometry": {"type": "Point", "coordinates": [121.3368691457064, -2.553762952872702]}}, {"type": "Feature", "properties": {"layer": "iron_oxide", "intensity": 45.238774022125256, "site": "sorowako"}, "geometry": {"type": "Point", "coordinates": [121.3463910708775, -2.514341343033523]}}, {"type": "Feature", "properties": {"layer": "iron_oxide", "intensity": 35.54978821555606, "site": "sorowako"}, "geometry": {"type": "Point", "coordinates": [121.3142092485087, -2.515612445552057]}}, {"type": "Feature", "properties": {"layer": "iron_oxide", "intensity": 56.64768250381023, "site": "sorowako"}, "geometry": {"type": "Point", "coordinates": [121.31964603192765, -2.53730558053778]}}, {"type": "Feature", "properties": {"layer": "iron_oxide", "intensity": 56.071500739810865, "site": "sorowako"}, "geometry": {"type": "Point", "coordinates": [121.3231002088081, -2.540230232008779]}}, {"type": "Feature", "properties": {"layer": "iron_oxide", "intensity": 67.0237847762962, "site": "sorowako"}, "geometry": {"type": "Point", "coordinates": [121.32423815998831, -2.5533916532443657]}}, {"type": "Feature", "properties": {"layer": "iron_oxide", "intensity": 37.830032146105545, "site": "sorowako"}, "geometry": {"type": "Point", "coordinates": [121.34685238933312, -2.514024121363558]}}, {"type": "Feature", "properties": {"layer": "iron_oxide", "intensity": 14.930630592114298, "site": "sorowako"}, "geometry": {"type": "Point", "coordinates": [121.38247366930324, -2.511919984665265]}}, {"type": "Feature", "properties": {"layer": "iron_oxide", "intensity": 52.385603464652625, "site": "sorowako"}, "geometry": {"type": "Point", "coordinates": [121.35276382210841, -2.5836295507168034]}}, {"type": "Feature", "properties": {"layer": "iron_oxide", "intensity": 35.09835277233328, "site": "morowali"}, "geometry": {"type": "Point", "coordinates": [121.92282268672203, -2.8225949319827164]}}, {"type": "Feature", "properties": {"layer": "iron_oxide", "intensity": 68.3213579166743, "site": "morowali"}, "geometry": {"type": "Point", "coordinates": [121.97963823014493, -2.8345691851037196]}}, {"type": "Feature", "properties": {"layer": "iron_oxide", "intensity": 54.436980161540006, "site": "morowali"}, "geometry": {"type": "Point", "coordinates": [121.96918414099551, -2.793152060665363]}}, {"type": "Feature", "properties": {"layer": "iron_oxide", "intensity": 66.75323709249236, "site": "morowali"}, "geometry": {"type": "Point", "coordinates": [121.98024739964592, -2.815102993692334]}}, {"type": "Feature", "properties": {"layer": "iron_oxide", "intensity": 18.037711124676804, "site": "morowali"}, "geometry": {"type": "Point", "coordinates": [121.99551078874205, -2.786758731575952]}}, {"type": "Feature", "properties": {"layer": "iron_oxide", "intensity": 34.86027632160688, "site": "morowali"}, "geometry": {"type": "Point", "coordinates": [121.92387418914562, -2.805955459785119]}}, {"type": "Feature", "properties": {"layer": "iron_oxide", "intensity": 74.01749142066102, "site": "morowali"}, "geometry": {"type": "Point", "coordinates": [121.97941685648675, -2.809681437189334]}}, {"type": "Feature", "properties": {"layer": "iron_oxide", "intensity": 50.36889013328139, "site": "morowali"}, "geometry": {"type": "Point", "coordinates": [121.9305045759901, -2.8160853049781163]}}, {"type": "Feature", "properties": {"layer": "iron_oxide", "intensity": 56.202009238816984, "site": "morowali"}, "geometry": {"type": "Point", "coordinates": [121.97007695873523, -2.796178370071033]}}, {"type": "Feature", "properties": {"layer": "iron_oxide", "intensity": 64.87966983520195, "site": "morowali"}, "geometry": {"type": "Point", "coordinates": [121.95835969228679, -2.849367780249142]}}, {"type": "Feature", "properties": {"layer": "iron_oxide", "intensity": 61.124943160358754, "site": "morowali"}, "geometry": {"type": "Point", "coordinates": [121.97555112688961, -2.8372837124048416]}}, {"type": "Feature", "properties": {"layer": "iron_oxide", "intensity": 46.84307024669774, "site": "morowali"}, "geometry": {"type": "Point", "coordinates": [121.99436428635762, -2.841940684268624]}}, {"type": "Feature", "properties": {"layer": "iron_oxide", "intensity": 51.1825276252727, "site": "morowali"}, "geometry": {"type": "Point", "coordinates": [121.94630601834503, -2.787560286084764]}}, {"type": "Feature", "properties": {"layer": "iron_oxide", "intensity": 84.12396220884746, "site": "morowali"}, "geometry": {"type": "Point", "coordinates": [121.95196460720315, -2.8111990968149914]}}, {"type": "Feature", "properties": {"layer": "iron_oxide", "intensity": 69.32190350992227, "site": "morowali"}, "geometry": {"type": "Point", "coordinates": [121.94282409131058, -2.829820902263002]}}, {"type": "Feature", "properties": {"layer": "iron_oxide", "intensity": 47.544324291544314, "site": "morowali"}, "geometry": {"type": "Point", "coordinates": [121.96528367942012, -2.7861055710304896]}}, {"type": "Feature", "properties": {"layer": "iron_oxide", "intensity": 66.10374536127392, "site": "morowali"}, "geometry": {"type": "Point", "coordinates": [121.97033758777992, -2.845947367926979]}}, {"type": "Feature", "properties": {"layer": "iron_oxide", "intensity": 83.70600208661662, "site": "morowali"}, "geometry": {"type": "Point", "coordinates": [121.96091156894111, -2.8091756506451855]}}, {"type": "Feature", "properties": {"layer": "iron_oxide", "intensity": 93.20652179383742, "site": "morowali"}, "geometry": {"type": "Point", "coordinates": [121.96782920349348, -2.8207208534074417]}}, {"type": "Feature", "properties": {"layer": "iron_oxide", "intensity": 31.800982845198583, "site": "morowali"}, "geometry": {"type": "Point", "coordinates": [121.92390709192375, -2.8404140170239653]}}, {"type": "Feature", "properties": {"layer": "iron_oxide", "intensity": 80.77268801983878, "site": "morowali"}, "geometry": {"type": "Point", "coordinates": [121.96209999563453, -2.8019703446890825]}}, {"type": "Feature", "properties": {"layer": "iron_oxide", "intensity": 29.294249260022525, "site": "morowali"}, "geometry": {"type": "Point", "coordinates": [121.99861188219066, -2.802311982421787]}}, {"type": "Feature", "properties": {"layer": "iron_oxide", "intensity": 68.74731257174048, "site": "morowali"}, "geometry": {"type": "Point", "coordinates": [121.96949318099564, -2.845099869437561]}}, {"type": "Feature", "properties": {"layer": "iron_oxide", "intensity": 52.490093160154295, "site": "morowali"}, "geometry": {"type": "Point", "coordinates": [121.98276678374026, -2.8483242765875456]}}, {"type": "Feature", "properties": {"layer": "iron_oxide", "intensity": 47.45880418539995, "site": "morowali"}, "geometry": {"type": "Point", "coordinates": [121.93416484404011, -2.7934749590453345]}}, {"type": "Feature", "properties": {"layer": "iron_oxide", "intensity": 69.83902800968676, "site": "morowali"}, "geometry": {"type": "Point", "coordinates": [121.96879920251875, -2.808973198017738]}}, {"type": "Feature", "properties": {"layer": "iron_oxide", "intensity": 92.43793403265126, "site": "morowali"}, "geometry": {"type": "Point", "coordinates": [121.95367181697978, -2.828221235955015]}}, {"type": "Feature", "properties": {"layer": "iron_oxide", "intensity": 63.363865700920826, "site": "morowali"}, "geometry": {"type": "Point", "coordinates": [121.96240463306279, -2.796364584178192]}}, {"type": "Feature", "properties": {"layer": "iron_oxide", "intensity": 35.85034081148956, "site": "morowali"}, "geometry": {"type": "Point", "coordinates": [121.98016955226421, -2.7884654697882336]}}, {"type": "Feature", "properties": {"layer": "iron_oxide", "intensity": 36.867626250654475, "site": "morowali"}, "geometry": {"type": "Point", "coordinates": [121.92238382227397, -2.838879721691884]}}, {"type": "Feature", "properties": {"layer": "iron_oxide", "intensity": 95.47072579716804, "site": "morowali"}, "geometry": {"type": "Point", "coordinates": [121.95739096001488, -2.8226040072974157]}}, {"type": "Feature", "properties": {"layer": "iron_oxide", "intensity": 77.49359228906692, "site": "morowali"}, "geometry": {"type": "Point", "coordinates": [121.96416210834718, -2.812775561365255]}}, {"type": "Feature", "properties": {"layer": "iron_oxide", "intensity": 54.39450938369893, "site": "morowali"}, "geometry": {"type": "Point", "coordinates": [121.94809736105745, -2.8435686331656256]}}, {"type": "Feature", "properties": {"layer": "iron_oxide", "intensity": 61.577501768790405, "site": "morowali"}, "geometry": {"type": "Point", "coordinates": [121.94136537251198, -2.7987255255968955]}}, {"type": "Feature", "properties": {"layer": "iron_oxide", "intensity": 43.85264017770117, "site": "morowali"}, "geometry": {"type": "Point", "coordinates": [121.92722850978029, -2.8048635423125265]}}, {"type": "Feature", "properties": {"layer": "iron_oxide", "intensity": 63.63559113536844, "site": "morowali"}, "geometry": {"type": "Point", "coordinates": [121.97989849466747, -2.8162815999182578]}}, {"type": "Feature", "properties": {"layer": "iron_oxide", "intensity": 63.64834375666305, "site": "morowali"}, "geometry": {"type": "Point", "coordinates": [121.93523249694292, -2.838478339502301]}}, {"type": "Feature", "properties": {"layer": "iron_oxide", "intensity": 41.79144617078315, "site": "morowali"}, "geometry": {"type": "Point", "coordinates": [121.95413076035125, -2.7836652815292093]}}, {"type": "Feature", "properties": {"layer": "iron_oxide", "intensity": 42.65545520523286, "site": "morowali"}, "geometry": {"type": "Point", "coordinates": [121.9802399993173, -2.8555366705015564]}}, {"type": "Feature", "properties": {"layer": "iron_oxide", "intensity": 45.76579334647647, "site": "morowali"}, "geometry": {"type": "Point", "coordinates": [121.99878138924352, -2.8217927611646463]}}, {"type": "Feature", "properties": {"layer": "iron_oxide", "intensity": 23.075478760698914, "site": "weda_bay"}, "geometry": {"type": "Point", "coordinates": [127.91185688191324, 0.44094359908809044]}}, {"type": "Feature", "properties": {"layer": "iron_oxide", "intensity": 48.191060852456, "site": "weda_bay"}, "geometry": {"type": "Point", "coordinates": [127.96789361582411, 0.4351155368724262]}}, {"type": "Feature", "properties": {"layer": "iron_oxide", "intensity": 28.761194582915834, "site": "weda_bay"}, "geometry": {"type": "Point", "coordinates": [127.91293560362901, 0.5017835827128319]}}, {"type": "Feature", "properties": {"layer": "iron_oxide", "intensity": 53.205754270317264, "site": "weda_bay"}, "geometry": {"type": "Point", "coordinates": [127.97318442362362, 0.46198883704911625]}}, {"type": "Feature", "properties": {"layer": "iron_oxide", "intensity": 77.29226984573918, "site": "weda_bay"}, "geometry": {"type": "Point", "coordinates": [127.93438097278622, 0.46294495091133075]}}, {"type": "Feature", "properties": {"layer": "iron_oxide", "intensity": 36.180912641141056, "site": "weda_bay"}, "geometry": {"type": "Point", "coordinates": [127.9595183634947, 0.5052847719166326]}}, {"type": "Feature", "properties": {"layer": "iron_oxide", "intensity": 62.50135801571295, "site": "weda_bay"}, "geometry": {"type": "Point", "coordinates": [127.96702758734963, 0.4615722561260079]}}, {"type": "Feature", "properties": {"layer": "iron_oxide", "intensity": 36.91447966638584, "site": "weda_bay"}, "geometry": {"type": "Point", "coordinates": [127.9662950341383, 0.5087719518680672]}}, {"type": "Feature", "properties": {"layer": "iron_oxide", "intensity": 73.63140690933717, "site": "weda_bay"}, "geometry": {"type": "Point", "coordinates": [127.94024029158216, 0.47944134619850143]}}, {"type": "Feature", "properties": {"layer": "iron_oxide", "intensity": 40.47957128220154, "site": "weda_bay"}, "geometry": {"type": "Point", "coordinates": [127.97977285365587, 0.49416745641512394]}}, {"type": "Feature", "properties": {"layer": "iron_oxide", "intensity": 29.157509542613994, "site": "weda_bay"}, "geometry": {"type": "Point", "coordinates": [127.9863714730781, 0.4968834057883073]}}, {"type": "Feature", "properties": {"layer": "iron_oxide", "intensity": 79.64645310174495, "site": "weda_bay"}, "geometry": {"type": "Point", "coordinates": [127.95430305372477, 0.48565508275246166]}}, {"type": "Feature", "properties": {"layer": "iron_oxide", "intensity": 66.26132713684842, "site": "weda_bay"}, "geometry": {"type": "Point", "coordinates": [127.96204166842175, 0.448672124839988]}}, {"type": "Feature", "properties": {"layer": "iron_oxide", "intensity": 46.36913672556643, "site": "weda_bay"}, "geometry": {"type": "Point", "coordinates": [127.97145101419106, 0.4430810474006215]}}, {"type": "Feature", "properties": {"layer": "iron_oxide", "intensity": 54.04661410703379, "site": "weda_bay"}, "geometry": {"type": "Point", "coordinates": [127.97935385064395, 0.48838411238703283]}}, {"type": "Feature", "properties": {"layer": "iron_oxide", "intensity": 74.85671819333234, "site": "weda_bay"}, "geometry": {"type": "Point", "coordinates": [127.9470980819063, 0.4487685450762616]}}, {"type": "Feature", "properties": {"layer": "iron_oxide", "intensity": 67.66973040268827, "site": "weda_bay"}, "geometry": {"type": "Point", "coordinates": [127.94426745079737, 0.45270512130458707]}}, {"type": "Feature", "properties": {"layer": "iron_oxide", "intensity": 73.28326160662414, "site": "weda_bay"}, "geometry": {"type": "Point", "coordinates": [127.9282291368415, 0.4686747939194251]}}, {"type": "Feature", "properties": {"layer": "iron_oxide", "intensity": 73.25788043092737, "site": "weda_bay"}, "geometry": {"type": "Point", "coordinates": [127.93114136553275, 0.4638758958920974]}}, {"type": "Feature", "properties": {"layer": "iron_oxide", "intensity": 51.16611605236508, "site": "weda_bay"}, "geometry": {"type": "Point", "coordinates": [127.94484960255332, 0.5021459407164592]}}, {"type": "Feature", "properties": {"layer": "iron_oxide", "intensity": 37.263232851717895, "site": "weda_bay"}, "geometry": {"type": "Point", "coordinates": [127.91755006899666, 0.45646944101543235]}}, {"type": "Feature", "properties": {"layer": "iron_oxide", "intensity": 61.1048605628453, "site": "weda_bay"}, "geometry": {"type": "Point", "coordinates": [127.94799894887103, 0.4474920160849784]}}, {"type": "Feature", "properties": {"layer": "iron_oxide", "intensity": 46.817467717440124, "site": "weda_bay"}, "geometry": {"type": "Point", "coordinates": [127.93524853588795, 0.44146585977076036]}}, {"type": "Feature", "properties": {"layer": "iron_oxide", "intensity": 34.08524224529487, "site": "weda_bay"}, "geometry": {"type": "Point", "coordinates": [127.98910744141949, 0.4736403137192876]}}, {"type": "Feature", "properties": {"layer": "iron_oxide", "intensity": 67.39243813060452, "site": "weda_bay"}, "geometry": {"type": "Point", "coordinates": [127.97363391732695, 0.480193227054406]}}, {"type": "Feature", "properties": {"layer": "iron_oxide", "intensity": 88.40874978574375, "site": "weda_bay"}, "geometry": {"type": "Point", "coordinates": [127.95365882671302, 0.45676907987872023]}}, {"type": "Feature", "properties": {"layer": "iron_oxide", "intensity": 93.70696179870764, "site": "weda_bay"}, "geometry": {"type": "Point", "coordinates": [127.94077124261486, 0.4676280786449803]}}, {"type": "Feature", "properties": {"layer": "iron_oxide", "intensity": 25.564597031299627, "site": "weda_bay"}, "geometry": {"type": "Point", "coordinates": [127.91324986232858, 0.44296408983070534]}}, {"type": "Feature", "properties": {"layer": "iron_oxide", "intensity": 41.58873358066146, "site": "weda_bay"}, "geometry": {"type": "Point", "coordinates": [127.95308965825733, 0.5074803800864324]}}, {"type": "Feature", "properties": {"layer": "iron_oxide", "intensity": 60.72695009742447, "site": "weda_bay"}, "geometry": {"type": "Point", "coordinates": [127.92901583702493, 0.4897967773179965]}}, {"type": "Feature", "properties": {"layer": "iron_oxide", "intensity": 19.60029134335545, "site": "weda_bay"}, "geometry": {"type": "Point", "coordinates": [127.98871422899306, 0.49882465672056486]}}, {"type": "Feature", "properties": {"layer": "iron_oxide", "intensity": 22.539431264290386, "site": "weda_bay"}, "geometry": {"type": "Point", "coordinates": [127.97686210178398, 0.508535141791421]}}, {"type": "Feature", "properties": {"layer": "iron_oxide", "intensity": 46.73631770314034, "site": "weda_bay"}, "geometry": {"type": "Point", "coordinates": [127.98083466517527, 0.46930685816555423]}}, {"type": "Feature", "properties": {"layer": "iron_oxide", "intensity": 69.27147674624663, "site": "weda_bay"}, "geometry": {"type": "Point", "coordinates": [127.93505195443794, 0.46030086357695427]}}, {"type": "Feature", "properties": {"layer": "iron_oxide", "intensity": 35.81828840214635, "site": "weda_bay"}, "geometry": {"type": "Point", "coordinates": [127.96775086200674, 0.43777811774993197]}}, {"type": "Feature", "properties": {"layer": "iron_oxide", "intensity": 43.243969905097394, "site": "weda_bay"}, "geometry": {"type": "Point", "coordinates": [127.96887424787965, 0.4334105450601962]}}, {"type": "Feature", "properties": {"layer": "iron_oxide", "intensity": 75.85665680363145, "site": "weda_bay"}, "geometry": {"type": "Point", "coordinates": [127.94062132691765, 0.4830808108129587]}}, {"type": "Feature", "properties": {"layer": "iron_oxide", "intensity": 40.16352758449148, "site": "weda_bay"}, "geometry": {"type": "Point", "coordinates": [127.92710848550522, 0.43814838391956656]}}, {"type": "Feature", "properties": {"layer": "iron_oxide", "intensity": 30.082943116496025, "site": "weda_bay"}, "geometry": {"type": "Point", "coordinates": [127.91669295444095, 0.5035537417572589]}}, {"type": "Feature", "properties": {"layer": "iron_oxide", "intensity": 34.07877349937338, "site": "weda_bay"}, "geometry": {"type": "Point", "coordinates": [127.92093073201654, 0.4352821356142752]}}, {"type": "Feature", "properties": {"layer": "iron_oxide", "intensity": 70.79814428936518, "site": "pomalaa"}, "geometry": {"type": "Point", "coordinates": [121.61370859574761, -4.15885485371412]}}, {"type": "Feature", "properties": {"layer": "iron_oxide", "intensity": 74.88154439916002, "site": "pomalaa"}, "geometry": {"type": "Point", "coordinates": [121.59748840841029, -4.198995370001297]}}, {"type": "Feature", "properties": {"layer": "iron_oxide", "intensity": 47.02741605964487, "site": "pomalaa"}, "geometry": {"type": "Point", "coordinates": [121.57758919932064, -4.183931580189622]}}, {"type": "Feature", "properties": {"layer": "iron_oxide", "intensity": 34.1294739856826, "site": "pomalaa"}, "geometry": {"type": "Point", "coordinates": [121.62147045043403, -4.140379989821756]}}, {"type": "Feature", "properties": {"layer": "iron_oxide", "intensity": 29.92831789008413, "site": "pomalaa"}, "geometry": {"type": "Point", "coordinates": [121.58451579034696, -4.219944032396688]}}, {"type": "Feature", "properties": {"layer": "iron_oxide", "intensity": 19.987197542344987, "site": "pomalaa"}, "geometry": {"type": "Point", "coordinates": [121.64567655068534, -4.215043363155086]}}, {"type": "Feature", "properties": {"layer": "iron_oxide", "intensity": 34.08764045341712, "site": "pomalaa"}, "geometry": {"type": "Point", "coordinates": [121.5703394069582, -4.203187615059345]}}, {"type": "Feature", "properties": {"layer": "iron_oxide", "intensity": 60.82511453169329, "site": "pomalaa"}, "geometry": {"type": "Point", "coordinates": [121.62737465181984, -4.153785134533062]}}, {"type": "Feature", "properties": {"layer": "iron_oxide", "intensity": 48.36735570681241, "site": "pomalaa"}, "geometry": {"type": "Point", "coordinates": [121.58505793159736, -4.1637747427324205]}}, {"type": "Feature", "properties": {"layer": "iron_oxide", "intensity": 67.91044352780696, "site": "pomalaa"}, "geometry": {"type": "Point", "coordinates": [121.62422689447709, -4.195976781069789]}}, {"type": "Feature", "properties": {"layer": "iron_oxide", "intensity": 45.826767840884486, "site": "pomalaa"}, "geometry": {"type": "Point", "coordinates": [121.64817645155138, -4.165656266355889]}}, {"type": "Feature", "properties": {"layer": "iron_oxide", "intensity": 33.99667733636223, "site": "pomalaa"}, "geometry": {"type": "Point", "coordinates": [121.62218019320153, -4.218102757212667]}}, {"type": "Feature", "properties": {"layer": "iron_oxide", "intensity": 23.42102784154578, "site": "pomalaa"}, "geometry": {"type": "Point", "coordinates": [121.57000610443103, -4.153968839450449]}}, {"type": "Feature", "properties": {"layer": "iron_oxide", "intensity": 88.77842937541598, "site": "pomalaa"}, "geometry": {"type": "Point", "coordinates": [121.60883078984328, -4.188063385576595]}}, {"type": "Feature", "properties": {"layer": "iron_oxide", "intensity": 46.086856570301165, "site": "pomalaa"}, "geometry": {"type": "Point", "coordinates": [121.6328228680902, -4.211140860897381]}}, {"type": "Feature", "properties": {"layer": "iron_oxide", "intensity": 47.110438731298764, "site": "pomalaa"}, "geometry": {"type": "Point", "coordinates": [121.64226846056674, -4.195794011976438]}}, {"type": "Feature", "properties": {"layer": "iron_oxide", "intensity": 30.421223443927445, "site": "pomalaa"}, "geometry": {"type": "Point", "coordinates": [121.57523861692675, -4.148289029199268]}}, {"type": "Feature", "properties": {"layer": "iron_oxide", "intensity": 36.449540131062044, "site": "pomalaa"}, "geometry": {"type": "Point", "coordinates": [121.64647727415984, -4.186395229084729]}}, {"type": "Feature", "properties": {"layer": "iron_oxide", "intensity": 42.30392661984264, "site": "pomalaa"}, "geometry": {"type": "Point", "coordinates": [121.6159214193926, -4.142669330335642]}}, {"type": "Feature", "properties": {"layer": "iron_oxide", "intensity": 28.923023310740476, "site": "pomalaa"}, "geometry": {"type": "Point", "coordinates": [121.64769728690953, -4.164609456861277]}}, {"type": "Feature", "properties": {"layer": "iron_oxide", "intensity": 50.968864980558166, "site": "pomalaa"}, "geometry": {"type": "Point", "coordinates": [121.60205583876815, -4.217181557805098]}}, {"type": "Feature", "properties": {"layer": "iron_oxide", "intensity": 40.711023636198696, "site": "pomalaa"}, "geometry": {"type": "Point", "coordinates": [121.64449319300883, -4.160699143376606]}}, {"type": "Feature", "properties": {"layer": "iron_oxide", "intensity": 38.12863467596398, "site": "pomalaa"}, "geometry": {"type": "Point", "coordinates": [121.64658655171115, -4.155712451329963]}}, {"type": "Feature", "properties": {"layer": "iron_oxide", "intensity": 19.145033279681087, "site": "pomalaa"}, "geometry": {"type": "Point", "coordinates": [121.64105574304536, -4.216472839795325]}}, {"type": "Feature", "properties": {"layer": "iron_oxide", "intensity": 64.89508968886767, "site": "pomalaa"}, "geometry": {"type": "Point", "coordinates": [121.61056316406157, -4.196727129338219]}}, {"type": "Feature", "properties": {"layer": "iron_oxide", "intensity": 45.91378399164799, "site": "pomalaa"}, "geometry": {"type": "Point", "coordinates": [121.62362765670957, -4.147338149889451]}}, {"type": "Feature", "properties": {"layer": "iron_oxide", "intensity": 36.09540228768004, "site": "pomalaa"}, "geometry": {"type": "Point", "coordinates": [121.62691773944142, -4.21320877897858]}}, {"type": "Feature", "properties": {"layer": "iron_oxide", "intensity": 77.23957759368395, "site": "pomalaa"}, "geometry": {"type": "Point", "coordinates": [121.59963945277244, -4.16630357305103]}}, {"type": "Feature", "properties": {"layer": "iron_oxide", "intensity": 71.94924969148474, "site": "pomalaa"}, "geometry": {"type": "Point", "coordinates": [121.58802283420286, -4.178420758425743]}}, {"type": "Feature", "properties": {"layer": "iron_oxide", "intensity": 37.09121723862083, "site": "pomalaa"}, "geometry": {"type": "Point", "coordinates": [121.64557031252565, -4.185135965090557]}}, {"type": "Feature", "properties": {"layer": "iron_oxide", "intensity": 39.42713713688926, "site": "pomalaa"}, "geometry": {"type": "Point", "coordinates": [121.6410986164465, -4.197562874471833]}}, {"type": "Feature", "properties": {"layer": "iron_oxide", "intensity": 32.66607398046371, "site": "pomalaa"}, "geometry": {"type": "Point", "coordinates": [121.64726671072322, -4.145345829987859]}}, {"type": "Feature", "properties": {"layer": "iron_oxide", "intensity": 40.15146955196343, "site": "pomalaa"}, "geometry": {"type": "Point", "coordinates": [121.61074134036244, -4.219225348768051]}}, {"type": "Feature", "properties": {"layer": "iron_oxide", "intensity": 73.3711389291257, "site": "pomalaa"}, "geometry": {"type": "Point", "coordinates": [121.61911163151345, -4.198273575525769]}}, {"type": "Feature", "properties": {"layer": "iron_oxide", "intensity": 42.08077504634799, "site": "pomalaa"}, "geometry": {"type": "Point", "coordinates": [121.62242062476481, -4.144850491386817]}}, {"type": "Feature", "properties": {"layer": "iron_oxide", "intensity": 45.43876489150954, "site": "pomalaa"}, "geometry": {"type": "Point", "coordinates": [121.57453009463401, -4.19067278838436]}}, {"type": "Feature", "properties": {"layer": "iron_oxide", "intensity": 34.35699881333242, "site": "pomalaa"}, "geometry": {"type": "Point", "coordinates": [121.64912288499116, -4.172899536854475]}}, {"type": "Feature", "properties": {"layer": "iron_oxide", "intensity": 52.20950882678416, "site": "pomalaa"}, "geometry": {"type": "Point", "coordinates": [121.64585631314185, -4.180536556250142]}}, {"type": "Feature", "properties": {"layer": "iron_oxide", "intensity": 51.32052160249657, "site": "pomalaa"}, "geometry": {"type": "Point", "coordinates": [121.5832953987611, -4.156177218983707]}}, {"type": "Feature", "properties": {"layer": "iron_oxide", "intensity": 98.97269835075213, "site": "pomalaa"}, "geometry": {"type": "Point", "coordinates": [121.61490430713054, -4.177858343548775]}}, {"type": "Feature", "properties": {"layer": "iron_oxide", "intensity": 73.22153639032942, "site": "gag_island"}, "geometry": {"type": "Point", "coordinates": [129.8816133556436, -0.08978664345212956]}}, {"type": "Feature", "properties": {"layer": "iron_oxide", "intensity": 42.21670916252541, "site": "gag_island"}, "geometry": {"type": "Point", "coordinates": [129.8410450237045, -0.06572488436679061]}}, {"type": "Feature", "properties": {"layer": "iron_oxide", "intensity": 83.35348900646903, "site": "gag_island"}, "geometry": {"type": "Point", "coordinates": [129.88605480296988, -0.08008657881621845]}}, {"type": "Feature", "properties": {"layer": "iron_oxide", "intensity": 46.4568585789249, "site": "gag_island"}, "geometry": {"type": "Point", "coordinates": [129.89547171981317, -0.09612436899015277]}}, {"type": "Feature", "properties": {"layer": "iron_oxide", "intensity": 83.87785147589913, "site": "gag_island"}, "geometry": {"type": "Point", "coordinates": [129.86502901332472, -0.0641278603237888]}}, {"type": "Feature", "properties": {"layer": "iron_oxide", "intensity": 26.62088448212677, "site": "gag_island"}, "geometry": {"type": "Point", "coordinates": [129.90413700259157, -0.1094553089417765]}}, {"type": "Feature", "properties": {"layer": "iron_oxide", "intensity": 49.957026600032215, "site": "gag_island"}, "geometry": {"type": "Point", "coordinates": [129.89042968543615, -0.03831019844708881]}}, {"type": "Feature", "properties": {"layer": "iron_oxide", "intensity": 50.230097883169506, "site": "gag_island"}, "geometry": {"type": "Point", "coordinates": [129.88411868135802, -0.03237817518712228]}}, {"type": "Feature", "properties": {"layer": "iron_oxide", "intensity": 40.77766274749534, "site": "gag_island"}, "geometry": {"type": "Point", "coordinates": [129.84024752117736, -0.07562320058844828]}}, {"type": "Feature", "properties": {"layer": "iron_oxide", "intensity": 40.43720157195929, "site": "gag_island"}, "geometry": {"type": "Point", "coordinates": [129.91325410339985, -0.09517471494318641]}}, {"type": "Feature", "properties": {"layer": "iron_oxide", "intensity": 35.55290531987754, "site": "gag_island"}, "geometry": {"type": "Point", "coordinates": [129.89165099974872, -0.10508055662418353]}}, {"type": "Feature", "properties": {"layer": "iron_oxide", "intensity": 69.45340015619718, "site": "gag_island"}, "geometry": {"type": "Point", "coordinates": [129.89865982184972, -0.08766874476740769]}}, {"type": "Feature", "properties": {"layer": "iron_oxide", "intensity": 42.575079257442134, "site": "gag_island"}, "geometry": {"type": "Point", "coordinates": [129.88457114412924, -0.03333389526275681]}}, {"type": "Feature", "properties": {"layer": "iron_oxide", "intensity": 78.29918506992715, "site": "gag_island"}, "geometry": {"type": "Point", "coordinates": [129.87944596152815, -0.08445659729005915]}}, {"type": "Feature", "properties": {"layer": "iron_oxide", "intensity": 58.28798680982329, "site": "gag_island"}, "geometry": {"type": "Point", "coordinates": [129.89709014404485, -0.04238602667550355]}}, {"type": "Feature", "properties": {"layer": "iron_oxide", "intensity": 31.88461473238064, "site": "gag_island"}, "geometry": {"type": "Point", "coordinates": [129.8956018092187, -0.030922499551322716]}}, {"type": "Feature", "properties": {"layer": "iron_oxide", "intensity": 61.31678440192881, "site": "gag_island"}, "geometry": {"type": "Point", "coordinates": [129.88867447123053, -0.04289893500452356]}}, {"type": "Feature", "properties": {"layer": "iron_oxide", "intensity": 35.894355541231654, "site": "gag_island"}, "geometry": {"type": "Point", "coordinates": [129.89826530711088, -0.10566535977126285]}}, {"type": "Feature", "properties": {"layer": "iron_oxide", "intensity": 65.60516799285296, "site": "gag_island"}, "geometry": {"type": "Point", "coordinates": [129.895012410356, -0.06217384876476844]}}, {"type": "Feature", "properties": {"layer": "iron_oxide", "intensity": 44.16921838548423, "site": "gag_island"}, "geometry": {"type": "Point", "coordinates": [129.89152023058506, -0.10679244456555671]}}, {"type": "Feature", "properties": {"layer": "iron_oxide", "intensity": 60.12473317879102, "site": "gag_island"}, "geometry": {"type": "Point", "coordinates": [129.90061623789424, -0.06484822408738636]}}, {"type": "Feature", "properties": {"layer": "iron_oxide", "intensity": 52.334346091694, "site": "gag_island"}, "geometry": {"type": "Point", "coordinates": [129.8770460561073, -0.10163950798419086]}}, {"type": "Feature", "properties": {"layer": "iron_oxide", "intensity": 35.22864240112879, "site": "gag_island"}, "geometry": {"type": "Point", "coordinates": [129.86219143669092, -0.10564665546513245]}}, {"type": "Feature", "properties": {"layer": "iron_oxide", "intensity": 71.83558393431491, "site": "gag_island"}, "geometry": {"type": "Point", "coordinates": [129.88858593168254, -0.04962558803521951]}}, {"type": "Feature", "properties": {"layer": "iron_oxide", "intensity": 52.087460834039575, "site": "gag_island"}, "geometry": {"type": "Point", "coordinates": [129.87223618954673, -0.032180313774427365]}}, {"type": "Feature", "properties": {"layer": "iron_oxide", "intensity": 30.890853549348392, "site": "gag_island"}, "geometry": {"type": "Point", "coordinates": [129.90196122825668, -0.1066655616737198]}}, {"type": "Feature", "properties": {"layer": "iron_oxide", "intensity": 66.0225154351915, "site": "gag_island"}, "geometry": {"type": "Point", "coordinates": [129.8701405043607, -0.08341894205297688]}}, {"type": "Feature", "properties": {"layer": "iron_oxide", "intensity": 40.71340282937683, "site": "gag_island"}, "geometry": {"type": "Point", "coordinates": [129.84344759842716, -0.04399734610012238]}}, {"type": "Feature", "properties": {"layer": "iron_oxide", "intensity": 67.34378412326022, "site": "gag_island"}, "geometry": {"type": "Point", "coordinates": [129.87279637797113, -0.09124966388114229]}}, {"type": "Feature", "properties": {"layer": "iron_oxide", "intensity": 49.34953939822489, "site": "gag_island"}, "geometry": {"type": "Point", "coordinates": [129.84970799506354, -0.09255523757341982]}}, {"type": "Feature", "properties": {"layer": "iron_oxide", "intensity": 51.47156635021154, "site": "gag_island"}, "geometry": {"type": "Point", "coordinates": [129.89536663397408, -0.09771002037684921]}}, {"type": "Feature", "properties": {"layer": "iron_oxide", "intensity": 35.94040003994087, "site": "gag_island"}, "geometry": {"type": "Point", "coordinates": [129.9153707594366, -0.09841873595358228]}}, {"type": "Feature", "properties": {"layer": "iron_oxide", "intensity": 63.767079650886615, "site": "gag_island"}, "geometry": {"type": "Point", "coordinates": [129.8702979992894, -0.04934298079366527]}}, {"type": "Feature", "properties": {"layer": "iron_oxide", "intensity": 60.0944222123954, "site": "gag_island"}, "geometry": {"type": "Point", "coordinates": [129.85623028793677, -0.05663307451442457]}}, {"type": "Feature", "properties": {"layer": "iron_oxide", "intensity": 24.49222893536526, "site": "gag_island"}, "geometry": {"type": "Point", "coordinates": [129.91744581972557, -0.04049719305963198]}}, {"type": "Feature", "properties": {"layer": "iron_oxide", "intensity": 39.03962805843672, "site": "gag_island"}, "geometry": {"type": "Point", "coordinates": [129.8410644623857, -0.08896082185079636]}}, {"type": "Feature", "properties": {"layer": "iron_oxide", "intensity": 53.21649052325017, "site": "gag_island"}, "geometry": {"type": "Point", "coordinates": [129.86634271137322, -0.09273572008837247]}}, {"type": "Feature", "properties": {"layer": "iron_oxide", "intensity": 47.72571840179035, "site": "gag_island"}, "geometry": {"type": "Point", "coordinates": [129.84942196161109, -0.08671743660909761]}}, {"type": "Feature", "properties": {"layer": "iron_oxide", "intensity": 29.640405392204315, "site": "gag_island"}, "geometry": {"type": "Point", "coordinates": [129.86188100158813, -0.10962718412927505]}}, {"type": "Feature", "properties": {"layer": "iron_oxide", "intensity": 68.15338881746747, "site": "gag_island"}, "geometry": {"type": "Point", "coordinates": [129.90270310639443, -0.07746129846813242]}}, {"type": "Feature", "properties": {"layer": "iron_oxide", "intensity": 92.50955033866607, "site": "obi_island"}, "geometry": {"type": "Point", "coordinates": [127.70117375536593, -1.548272909344312]}}, {"type": "Feature", "properties": {"layer": "iron_oxide", "intensity": 60.75464167879839, "site": "obi_island"}, "geometry": {"type": "Point", "coordinates": [127.69169749110866, -1.5432808114917527]}}, {"type": "Feature", "properties": {"layer": "iron_oxide", "intensity": 32.3959429594558, "site": "obi_island"}, "geometry": {"type": "Point", "coordinates": [127.68558961404854, -1.5813541986946968]}}, {"type": "Feature", "properties": {"layer": "iron_oxide", "intensity": 62.425099067658444, "site": "obi_island"}, "geometry": {"type": "Point", "coordinates": [127.73543051817494, -1.5310465966026812]}}, {"type": "Feature", "properties": {"layer": "iron_oxide", "intensity": 55.42437494902108, "site": "obi_island"}, "geometry": {"type": "Point", "coordinates": [127.69901534074245, -1.5181224378003213]}}, {"type": "Feature", "properties": {"layer": "iron_oxide", "intensity": 32.032190840127356, "site": "obi_island"}, "geometry": {"type": "Point", "coordinates": [127.74118852791386, -1.515314974711105]}}, {"type": "Feature", "properties": {"layer": "iron_oxide", "intensity": 56.47928509181109, "site": "obi_island"}, "geometry": {"type": "Point", "coordinates": [127.69956802363454, -1.5172753896880868]}}, {"type": "Feature", "properties": {"layer": "iron_oxide", "intensity": 75.65298547791653, "site": "obi_island"}, "geometry": {"type": "Point", "coordinates": [127.71480971197582, -1.561967678323335]}}, {"type": "Feature", "properties": {"layer": "iron_oxide", "intensity": 34.74017739391262, "site": "obi_island"}, "geometry": {"type": "Point", "coordinates": [127.74631912911497, -1.5655463251970427]}}, {"type": "Feature", "properties": {"layer": "iron_oxide", "intensity": 42.65281876854542, "site": "obi_island"}, "geometry": {"type": "Point", "coordinates": [127.67339404532648, -1.5650125444672822]}}, {"type": "Feature", "properties": {"layer": "iron_oxide", "intensity": 56.849437782076, "site": "obi_island"}, "geometry": {"type": "Point", "coordinates": [127.7382348826961, -1.539568127543117]}}, {"type": "Feature", "properties": {"layer": "iron_oxide", "intensity": 86.9062673139453, "site": "obi_island"}, "geometry": {"type": "Point", "coordinates": [127.7078808420635, -1.548280274053443]}}, {"type": "Feature", "properties": {"layer": "iron_oxide", "intensity": 30.906938415436798, "site": "obi_island"}, "geometry": {"type": "Point", "coordinates": [127.67238582923727, -1.5362108270213384]}}, {"type": "Feature", "properties": {"layer": "iron_oxide", "intensity": 58.19269484432856, "site": "obi_island"}, "geometry": {"type": "Point", "coordinates": [127.71713809211325, -1.582428552844549]}}, {"type": "Feature", "properties": {"layer": "iron_oxide", "intensity": 63.5128927076927, "site": "obi_island"}, "geometry": {"type": "Point", "coordinates": [127.70380741703406, -1.5327533207219313]}}, {"type": "Feature", "properties": {"layer": "iron_oxide", "intensity": 31.046653265994692, "site": "obi_island"}, "geometry": {"type": "Point", "coordinates": [127.67593579662471, -1.5134415427292123]}}, {"type": "Feature", "properties": {"layer": "iron_oxide", "intensity": 90.04618677234726, "site": "obi_island"}, "geometry": {"type": "Point", "coordinates": [127.70250267438298, -1.541542011605291]}}, {"type": "Feature", "properties": {"layer": "iron_oxide", "intensity": 21.559989841291753, "site": "obi_island"}, "geometry": {"type": "Point", "coordinates": [127.67364823258677, -1.5213360445142903]}}, {"type": "Feature", "properties": {"layer": "iron_oxide", "intensity": 40.847672617764374, "site": "obi_island"}, "geometry": {"type": "Point", "coordinates": [127.70768158701267, -1.5846908339743409]}}, {"type": "Feature", "properties": {"layer": "iron_oxide", "intensity": 47.00877797438264, "site": "obi_island"}, "geometry": {"type": "Point", "coordinates": [127.71992496412732, -1.5797137371401135]}}, {"type": "Feature", "properties": {"layer": "iron_oxide", "intensity": 49.34428539618208, "site": "obi_island"}, "geometry": {"type": "Point", "coordinates": [127.70074112944192, -1.5196086116336622]}}, {"type": "Feature", "properties": {"layer": "iron_oxide", "intensity": 38.57045896597704, "site": "obi_island"}, "geometry": {"type": "Point", "coordinates": [127.73448703860629, -1.5197060520814427]}}, {"type": "Feature", "properties": {"layer": "iron_oxide", "intensity": 52.27667222088096, "site": "obi_island"}, "geometry": {"type": "Point", "coordinates": [127.73081921360937, -1.568446280642996]}}, {"type": "Feature", "properties": {"layer": "iron_oxide", "intensity": 38.633179326663544, "site": "obi_island"}, "geometry": {"type": "Point", "coordinates": [127.73755858742562, -1.573541271306277]}}, {"type": "Feature", "properties": {"layer": "iron_oxide", "intensity": 54.90001059467995, "site": "obi_island"}, "geometry": {"type": "Point", "coordinates": [127.7178302284693, -1.523047729160238]}}, {"type": "Feature", "properties": {"layer": "iron_oxide", "intensity": 58.85216290285193, "site": "obi_island"}, "geometry": {"type": "Point", "coordinates": [127.73964570012812, -1.5552015056946185]}}, {"type": "Feature", "properties": {"layer": "iron_oxide", "intensity": 64.01745145280401, "site": "obi_island"}, "geometry": {"type": "Point", "coordinates": [127.72655766450998, -1.575798735536096]}}, {"type": "Feature", "properties": {"layer": "iron_oxide", "intensity": 74.01210524772839, "site": "obi_island"}, "geometry": {"type": "Point", "coordinates": [127.69458251135345, -1.5316175697734546]}}, {"type": "Feature", "properties": {"layer": "iron_oxide", "intensity": 53.45124618662072, "site": "obi_island"}, "geometry": {"type": "Point", "coordinates": [127.71928583883137, -1.5844703333230883]}}, {"type": "Feature", "properties": {"layer": "iron_oxide", "intensity": 72.67850406891209, "site": "obi_island"}, "geometry": {"type": "Point", "coordinates": [127.72277866055357, -1.5361004355095957]}}, {"type": "Feature", "properties": {"layer": "iron_oxide", "intensity": 55.54681385650228, "site": "obi_island"}, "geometry": {"type": "Point", "coordinates": [127.7267348612034, -1.5814615677720738]}}, {"type": "Feature", "properties": {"layer": "iron_oxide", "intensity": 60.67561765394963, "site": "obi_island"}, "geometry": {"type": "Point", "coordinates": [127.70054492234308, -1.5227085239575444]}}, {"type": "Feature", "properties": {"layer": "iron_oxide", "intensity": 62.338346037778166, "site": "obi_island"}, "geometry": {"type": "Point", "coordinates": [127.7237297705261, -1.5250923762521678]}}, {"type": "Feature", "properties": {"layer": "iron_oxide", "intensity": 62.37279330606382, "site": "obi_island"}, "geometry": {"type": "Point", "coordinates": [127.7350560509077, -1.5365916120021685]}}, {"type": "Feature", "properties": {"layer": "iron_oxide", "intensity": 54.452953587072734, "site": "obi_island"}, "geometry": {"type": "Point", "coordinates": [127.70400743927107, -1.5770420068406807]}}, {"type": "Feature", "properties": {"layer": "iron_oxide", "intensity": 58.37177740271228, "site": "obi_island"}, "geometry": {"type": "Point", "coordinates": [127.67832775163349, -1.5477488644396127]}}, {"type": "Feature", "properties": {"layer": "iron_oxide", "intensity": 70.05315175493655, "site": "obi_island"}, "geometry": {"type": "Point", "coordinates": [127.73110209560937, -1.5401261126810404]}}, {"type": "Feature", "properties": {"layer": "iron_oxide", "intensity": 66.57053683622806, "site": "obi_island"}, "geometry": {"type": "Point", "coordinates": [127.70052768774956, -1.5254796955628722]}}, {"type": "Feature", "properties": {"layer": "iron_oxide", "intensity": 68.54137419261258, "site": "obi_island"}, "geometry": {"type": "Point", "coordinates": [127.68816116584685, -1.56582961189379]}}, {"type": "Feature", "properties": {"layer": "iron_oxide", "intensity": 72.40581011181881, "site": "obi_island"}, "geometry": {"type": "Point", "coordinates": [127.71512346275446, -1.528197784155415]}}, {"type": "Feature", "properties": {"layer": "iron_oxide", "intensity": 35.22437242094656, "site": "konawe"}, "geometry": {"type": "Point", "coordinates": [122.14721867006138, -3.817746959656174]}}, {"type": "Feature", "properties": {"layer": "iron_oxide", "intensity": 72.23716855958926, "site": "konawe"}, "geometry": {"type": "Point", "coordinates": [122.13254820330376, -3.818803113014276]}}, {"type": "Feature", "properties": {"layer": "iron_oxide", "intensity": 64.52368363039642, "site": "konawe"}, "geometry": {"type": "Point", "coordinates": [122.13498124933626, -3.830384677199907]}}, {"type": "Feature", "properties": {"layer": "iron_oxide", "intensity": 73.22071545318144, "site": "konawe"}, "geometry": {"type": "Point", "coordinates": [122.09266959444238, -3.819013286722726]}}, {"type": "Feature", "properties": {"layer": "iron_oxide", "intensity": 54.40604707789233, "site": "konawe"}, "geometry": {"type": "Point", "coordinates": [122.13875026938514, -3.8533893339854774]}}, {"type": "Feature", "properties": {"layer": "iron_oxide", "intensity": 48.69914986657174, "site": "konawe"}, "geometry": {"type": "Point", "coordinates": [122.14249809934188, -3.8173668093622593]}}, {"type": "Feature", "properties": {"layer": "iron_oxide", "intensity": 42.848542895259634, "site": "konawe"}, "geometry": {"type": "Point", "coordinates": [122.14070515926304, -3.856817783436071]}}, {"type": "Feature", "properties": {"layer": "iron_oxide", "intensity": 47.16017651627938, "site": "konawe"}, "geometry": {"type": "Point", "coordinates": [122.10445281009385, -3.7938634024902913]}}, {"type": "Feature", "properties": {"layer": "iron_oxide", "intensity": 62.28120328393873, "site": "konawe"}, "geometry": {"type": "Point", "coordinates": [122.08030544635699, -3.8326496220780926]}}, {"type": "Feature", "properties": {"layer": "iron_oxide", "intensity": 49.742549745669386, "site": "konawe"}, "geometry": {"type": "Point", "coordinates": [122.13000734119295, -3.8074160728255384]}}, {"type": "Feature", "properties": {"layer": "iron_oxide", "intensity": 37.782937480616496, "site": "konawe"}, "geometry": {"type": "Point", "coordinates": [122.08111937704237, -3.7940105053391933]}}, {"type": "Feature", "properties": {"layer": "iron_oxide", "intensity": 44.83543610303193, "site": "konawe"}, "geometry": {"type": "Point", "coordinates": [122.09673951304714, -3.7942717279173923]}}, {"type": "Feature", "properties": {"layer": "iron_oxide", "intensity": 41.225873443114075, "site": "konawe"}, "geometry": {"type": "Point", "coordinates": [122.08971580766482, -3.856261121601222]}}, {"type": "Feature", "properties": {"layer": "iron_oxide", "intensity": 83.66714308926184, "site": "konawe"}, "geometry": {"type": "Point", "coordinates": [122.10499879445206, -3.822651895322118]}}, {"type": "Feature", "properties": {"layer": "iron_oxide", "intensity": 37.640982139642176, "site": "konawe"}, "geometry": {"type": "Point", "coordinates": [122.13636161064527, -3.8679887158565975]}}, {"type": "Feature", "properties": {"layer": "iron_oxide", "intensity": 65.34643395887946, "site": "konawe"}, "geometry": {"type": "Point", "coordinates": [122.11371581845758, -3.80382674087754]}}, {"type": "Feature", "properties": {"layer": "iron_oxide", "intensity": 41.20856186212346, "site": "konawe"}, "geometry": {"type": "Point", "coordinates": [122.07521456994007, -3.8387167779959595]}}, {"type": "Feature", "properties": {"layer": "iron_oxide", "intensity": 57.088674775753745, "site": "konawe"}, "geometry": {"type": "Point", "coordinates": [122.13587131040055, -3.8318986137122586]}}, {"type": "Feature", "properties": {"layer": "iron_oxide", "intensity": 50.09647199004782, "site": "konawe"}, "geometry": {"type": "Point", "coordinates": [122.13862774630914, -3.8469493287402172]}}, {"type": "Feature", "properties": {"layer": "iron_oxide", "intensity": 37.34435250226519, "site": "konawe"}, "geometry": {"type": "Point", "coordinates": [122.09041590353156, -3.799273377986541]}}, {"type": "Feature", "properties": {"layer": "iron_oxide", "intensity": 27.50910979384401, "site": "konawe"}, "geometry": {"type": "Point", "coordinates": [122.14960150996717, -3.8170645658496922]}}, {"type": "Feature", "properties": {"layer": "iron_oxide", "intensity": 94.78584290098223, "site": "konawe"}, "geometry": {"type": "Point", "coordinates": [122.10943062538338, -3.8286381271249534]}}, {"type": "Feature", "properties": {"layer": "iron_oxide", "intensity": 69.27835310163512, "site": "konawe"}, "geometry": {"type": "Point", "coordinates": [122.08975319282207, -3.8218798885142857]}}, {"type": "Feature", "properties": {"layer": "iron_oxide", "intensity": 44.07190384762908, "site": "konawe"}, "geometry": {"type": "Point", "coordinates": [122.1049568998693, -3.7944033982768604]}}, {"type": "Feature", "properties": {"layer": "iron_oxide", "intensity": 73.63173416692058, "site": "konawe"}, "geometry": {"type": "Point", "coordinates": [122.11385185352943, -3.8525860817638344]}}, {"type": "Feature", "properties": {"layer": "iron_oxide", "intensity": 37.39988605599525, "site": "konawe"}, "geometry": {"type": "Point", "coordinates": [122.07572212864709, -3.8632190592662243]}}, {"type": "Feature", "properties": {"layer": "iron_oxide", "intensity": 23.023734314560386, "site": "konawe"}, "geometry": {"type": "Point", "coordinates": [122.07349427926029, -3.8611418305098746]}}, {"type": "Feature", "properties": {"layer": "iron_oxide", "intensity": 43.33041108840121, "site": "konawe"}, "geometry": {"type": "Point", "coordinates": [122.07679973566744, -3.8506778590296618]}}, {"type": "Feature", "properties": {"layer": "iron_oxide", "intensity": 67.76263482276332, "site": "konawe"}, "geometry": {"type": "Point", "coordinates": [122.1327435138337, -3.8200496863933453]}}, {"type": "Feature", "properties": {"layer": "iron_oxide", "intensity": 60.08092964602737, "site": "konawe"}, "geometry": {"type": "Point", "coordinates": [122.10254338198118, -3.857624015376499]}}, {"type": "Feature", "properties": {"layer": "iron_oxide", "intensity": 72.66109570423522, "site": "konawe"}, "geometry": {"type": "Point", "coordinates": [122.10470879110028, -3.8508998854319514]}}, {"type": "Feature", "properties": {"layer": "iron_oxide", "intensity": 55.582681268165636, "site": "konawe"}, "geometry": {"type": "Point", "coordinates": [122.12376245221878, -3.7978792981388607]}}, {"type": "Feature", "properties": {"layer": "iron_oxide", "intensity": 16.244445888371388, "site": "konawe"}, "geometry": {"type": "Point", "coordinates": [122.14236596232996, -3.792103105046212]}}, {"type": "Feature", "properties": {"layer": "iron_oxide", "intensity": 62.13212556466031, "site": "konawe"}, "geometry": {"type": "Point", "coordinates": [122.13799943591775, -3.8242757540136827]}}, {"type": "Feature", "properties": {"layer": "iron_oxide", "intensity": 54.46291766243509, "site": "konawe"}, "geometry": {"type": "Point", "coordinates": [122.13174365623081, -3.819021464040052]}}, {"type": "Feature", "properties": {"layer": "iron_oxide", "intensity": 44.077034865634026, "site": "konawe"}, "geometry": {"type": "Point", "coordinates": [122.08156509669634, -3.841346959328048]}}, {"type": "Feature", "properties": {"layer": "iron_oxide", "intensity": 47.927882478989716, "site": "konawe"}, "geometry": {"type": "Point", "coordinates": [122.1038615157389, -3.801266981305031]}}, {"type": "Feature", "properties": {"layer": "iron_oxide", "intensity": 81.10232537282525, "site": "konawe"}, "geometry": {"type": "Point", "coordinates": [122.10017219193342, -3.8367662128394606]}}, {"type": "Feature", "properties": {"layer": "iron_oxide", "intensity": 45.83922822956941, "site": "konawe"}, "geometry": {"type": "Point", "coordinates": [122.08597708657572, -3.847018916693975]}}, {"type": "Feature", "properties": {"layer": "iron_oxide", "intensity": 44.345170701796924, "site": "konawe"}, "geometry": {"type": "Point", "coordinates": [122.13044749990286, -3.8534373636099892]}}, {"type": "Feature", "properties": {"layer": "iron_oxide", "intensity": 58.19910348489361, "site": "tapunopaka"}, "geometry": {"type": "Point", "coordinates": [122.14996479379057, -3.6270434380030894]}}, {"type": "Feature", "properties": {"layer": "iron_oxide", "intensity": 44.4315604851938, "site": "tapunopaka"}, "geometry": {"type": "Point", "coordinates": [122.2142656058644, -3.602647165136242]}}, {"type": "Feature", "properties": {"layer": "iron_oxide", "intensity": 14.926271832563103, "site": "tapunopaka"}, "geometry": {"type": "Point", "coordinates": [122.14445644679756, -3.6498289540162197]}}, {"type": "Feature", "properties": {"layer": "iron_oxide", "intensity": 43.933776392845694, "site": "tapunopaka"}, "geometry": {"type": "Point", "coordinates": [122.14137660023029, -3.612600047179923]}}, {"type": "Feature", "properties": {"layer": "iron_oxide", "intensity": 70.18354138093403, "site": "tapunopaka"}, "geometry": {"type": "Point", "coordinates": [122.16838464418699, -3.629321729500954]}}, {"type": "Feature", "properties": {"layer": "iron_oxide", "intensity": 55.893300855442945, "site": "tapunopaka"}, "geometry": {"type": "Point", "coordinates": [122.1707878652876, -3.579280395009949]}}, {"type": "Feature", "properties": {"layer": "iron_oxide", "intensity": 58.18326856993351, "site": "tapunopaka"}, "geometry": {"type": "Point", "coordinates": [122.19611506226538, -3.635947456371565]}}, {"type": "Feature", "properties": {"layer": "iron_oxide", "intensity": 34.41249920555252, "site": "tapunopaka"}, "geometry": {"type": "Point", "coordinates": [122.15641658998672, -3.649173951110144]}}, {"type": "Feature", "properties": {"layer": "iron_oxide", "intensity": 43.93594318838552, "site": "tapunopaka"}, "geometry": {"type": "Point", "coordinates": [122.20612634306943, -3.6328507034345945]}}, {"type": "Feature", "properties": {"layer": "iron_oxide", "intensity": 44.436819807648334, "site": "tapunopaka"}, "geometry": {"type": "Point", "coordinates": [122.15153527719085, -3.5884389933036207]}}, {"type": "Feature", "properties": {"layer": "iron_oxide", "intensity": 57.20104596847736, "site": "tapunopaka"}, "geometry": {"type": "Point", "coordinates": [122.17646379012606, -3.576989563488561]}}, {"type": "Feature", "properties": {"layer": "iron_oxide", "intensity": 57.24886946102763, "site": "tapunopaka"}, "geometry": {"type": "Point", "coordinates": [122.20715322506177, -3.6238923844088995]}}, {"type": "Feature", "properties": {"layer": "iron_oxide", "intensity": 61.44039634739344, "site": "tapunopaka"}, "geometry": {"type": "Point", "coordinates": [122.17830537823704, -3.577671315211621]}}, {"type": "Feature", "properties": {"layer": "iron_oxide", "intensity": 50.80761143320966, "site": "tapunopaka"}, "geometry": {"type": "Point", "coordinates": [122.15066700335763, -3.626101350019179]}}, {"type": "Feature", "properties": {"layer": "iron_oxide", "intensity": 54.30707647464814, "site": "tapunopaka"}, "geometry": {"type": "Point", "coordinates": [122.20444786264201, -3.62583598004162]}}, {"type": "Feature", "properties": {"layer": "iron_oxide", "intensity": 76.19905871028361, "site": "tapunopaka"}, "geometry": {"type": "Point", "coordinates": [122.16419337612228, -3.611386241898085]}}, {"type": "Feature", "properties": {"layer": "iron_oxide", "intensity": 45.54837930948833, "site": "tapunopaka"}, "geometry": {"type": "Point", "coordinates": [122.15402138243265, -3.6302973835732373]}}, {"type": "Feature", "properties": {"layer": "iron_oxide", "intensity": 49.62226716764877, "site": "tapunopaka"}, "geometry": {"type": "Point", "coordinates": [122.15023261683017, -3.5849290676157057]}}, {"type": "Feature", "properties": {"layer": "iron_oxide", "intensity": 53.751379037783316, "site": "tapunopaka"}, "geometry": {"type": "Point", "coordinates": [122.17395103655153, -3.583858299961276]}}, {"type": "Feature", "properties": {"layer": "iron_oxide", "intensity": 66.45958356028278, "site": "tapunopaka"}, "geometry": {"type": "Point", "coordinates": [122.16032087125232, -3.610755118777765]}}, {"type": "Feature", "properties": {"layer": "iron_oxide", "intensity": 38.39092526856357, "site": "tapunopaka"}, "geometry": {"type": "Point", "coordinates": [122.16324875598596, -3.6452997591734584]}}, {"type": "Feature", "properties": {"layer": "iron_oxide", "intensity": 41.20744161041678, "site": "tapunopaka"}, "geometry": {"type": "Point", "coordinates": [122.14222597154787, -3.6024132850665707]}}, {"type": "Feature", "properties": {"layer": "iron_oxide", "intensity": 63.60301807174932, "site": "tapunopaka"}, "geometry": {"type": "Point", "coordinates": [122.18636910585808, -3.626404989196379]}}, {"type": "Feature", "properties": {"layer": "iron_oxide", "intensity": 42.94508637372126, "site": "tapunopaka"}, "geometry": {"type": "Point", "coordinates": [122.20404662048801, -3.57967338467695]}}, {"type": "Feature", "properties": {"layer": "iron_oxide", "intensity": 36.76492845235646, "site": "tapunopaka"}, "geometry": {"type": "Point", "coordinates": [122.2196689812214, -3.600360478864541]}}, {"type": "Feature", "properties": {"layer": "iron_oxide", "intensity": 58.25912538703879, "site": "tapunopaka"}, "geometry": {"type": "Point", "coordinates": [122.1603530807826, -3.5953729529193983]}}, {"type": "Feature", "properties": {"layer": "iron_oxide", "intensity": 64.15990807232757, "site": "tapunopaka"}, "geometry": {"type": "Point", "coordinates": [122.20161754539724, -3.593447766133876]}}, {"type": "Feature", "properties": {"layer": "iron_oxide", "intensity": 58.67970376644797, "site": "tapunopaka"}, "geometry": {"type": "Point", "coordinates": [122.18465975531205, -3.5848817009210077]}}, {"type": "Feature", "properties": {"layer": "iron_oxide", "intensity": 76.51198380760142, "site": "tapunopaka"}, "geometry": {"type": "Point", "coordinates": [122.17817656040062, -3.5957911804705454]}}, {"type": "Feature", "properties": {"layer": "iron_oxide", "intensity": 31.71226471306555, "site": "tapunopaka"}, "geometry": {"type": "Point", "coordinates": [122.14139588320305, -3.5748758116228716]}}, {"type": "Feature", "properties": {"layer": "iron_oxide", "intensity": 59.34036548553995, "site": "tapunopaka"}, "geometry": {"type": "Point", "coordinates": [122.20341453036654, -3.619060477032336]}}, {"type": "Feature", "properties": {"layer": "iron_oxide", "intensity": 59.84428018889942, "site": "tapunopaka"}, "geometry": {"type": "Point", "coordinates": [122.20487674750115, -3.6313319428309097]}}, {"type": "Feature", "properties": {"layer": "iron_oxide", "intensity": 38.62346955429175, "site": "tapunopaka"}, "geometry": {"type": "Point", "coordinates": [122.15143529085374, -3.58455991459996]}}, {"type": "Feature", "properties": {"layer": "iron_oxide", "intensity": 36.26563816371714, "site": "tapunopaka"}, "geometry": {"type": "Point", "coordinates": [122.21452386384955, -3.6324039955499416]}}, {"type": "Feature", "properties": {"layer": "iron_oxide", "intensity": 67.06161871427938, "site": "tapunopaka"}, "geometry": {"type": "Point", "coordinates": [122.17959083692178, -3.5933794480811434]}}, {"type": "Feature", "properties": {"layer": "iron_oxide", "intensity": 20.989539564582856, "site": "tapunopaka"}, "geometry": {"type": "Point", "coordinates": [122.14217738306857, -3.6416846262257168]}}, {"type": "Feature", "properties": {"layer": "iron_oxide", "intensity": 73.22105224715787, "site": "tapunopaka"}, "geometry": {"type": "Point", "coordinates": [122.16365030393663, -3.60470426233558]}}, {"type": "Feature", "properties": {"layer": "iron_oxide", "intensity": 34.84942432560625, "site": "tapunopaka"}, "geometry": {"type": "Point", "coordinates": [122.14398051119564, -3.634271057018748]}}, {"type": "Feature", "properties": {"layer": "iron_oxide", "intensity": 39.323339602511794, "site": "tapunopaka"}, "geometry": {"type": "Point", "coordinates": [122.1502183471338, -3.5913905622046207]}}, {"type": "Feature", "properties": {"layer": "iron_oxide", "intensity": 37.246756528083836, "site": "tapunopaka"}, "geometry": {"type": "Point", "coordinates": [122.14933830490138, -3.5796123668362694]}}]}