{"type": "FeatureCollection", "features": [{"type": "Feature", "properties": {"layer": "slope", "slope_deg": 13, "site": "sorowako"}, "geometry": {"type": "Polygon", "coordinates": [[[121.39657688227739, -2.5394254066146096], [121.38325549989733, -2.5268963852231376], [121.36861575264986, -2.5317467083800054], [121.36749786410867, -2.5479162984159593], [121.38385650516236, -2.5538041320160003], [121.39657688227739, -2.5394254066146096]]]}}, {"type": "Feature", "properties": {"layer": "slope", "slope_deg": 15, "site": "sorowako"}, "geometry": {"type": "Polygon", "coordinates": [[[121.39003210281633, -2.563389584911496], [121.3786776211385, -2.547077960033528], [121.35921718732838, -2.553101404429695], [121.35917936822567, -2.573705242579783], [121.37803146215869, -2.5777125369349387], [121.39003210281633, -2.563389584911496]]]}}, {"type": "Feature", "properties": {"layer": "slope", "slope_deg": 9, "site": "sorowako"}, "geometry": {"type": "Polygon", "coordinates": [[[121.37838914092619, -2.5676738963535626], [121.36634483058951, -2.550718554847551], [121.3503098354541, -2.5600264036284712], [121.3470866269415, -2.5776631871396827], [121.36519428093752, -2.5810882101369113], [121.37838914092619, -2.5676738963535626]]]}}, {"type": "Feature", "properties": {"layer": "slope", "slope_deg": 9, "site": "morowali"}, "geometry": {"type": "Polygon", "coordinates": [[[121.95527727533859, -2.8311237929396675], [121.94583885105712, -2.8192314651280874], [121.92807923434735, -2.8210280738931894], [121.92783543508018, -2.841396642522043], [121.94582544047441, -2.8429748472215786], [121.95527727533859, -2.8311237929396675]]]}}, {"type": "Feature", "properties": {"layer": "slope", "slope_deg": 14, "site": "morowali"}, "geometry": {"type": "Polygon", "coordinates": [[[121.97644489640498, -2.83057996669757], [121.96709548925826, -2.815721279467778], [121.95170912368218, -2.8229087779977537], [121.95090359320187, -2.8388364075489427], [121.96621134629648, -2.842717541689366], [121.97644489640498, -2.83057996669757]]]}}, {"type": "Feature", "properties": {"layer": "slope", "slope_deg": 12, "site": "morowali"}, "geometry": {"type": "Polygon", "coordinates": [[[121.95428721134087, -2.8445698956730663], [121.94618545417943, -2.8292091790620706], [121.92995117748178, -2.836401176544125], [121.92947645548003, -2.853083520525262], [121.9459675754213, -2.859260050417103], [121.95428721134087, -2.8445698956730663]]]}}, {"type": "Feature", "properties": {"layer": "slope", "slope_deg": 10, "site": "weda_bay"}, "geometry": {"type": "Polygon", "coordinates": [[[127.94162347133714, 0.460609359939992], [127.93069483914134, 0.4736388395467148], [127.91522609056145, 0.4687722207396667], [127.91517681872473, 0.45241070105550807], [127.9318587793023, 0.4439976408616126], [127.94162347133714, 0.460609359939992]]]}}, {"type": "Feature", "properties": {"layer": "slope", "slope_deg": 11, "site": "weda_bay"}, "geometry": {"type": "Polygon", "coordinates": [[[127.99167876507802, 0.44635343351198614], [127.98182499137518, 0.4617693420576401], [127.96535040643364, 0.4546837177515509], [127.96639797035748, 0.4387842490138901], [127.9817180026787, 0.4312668023161187], [127.99167876507802, 0.44635343351198614]]]}}, {"type": "Feature", "properties": {"layer": "slope", "slope_deg": 10, "site": "weda_bay"}, "geometry": {"type": "Polygon", "coordinates": [[[127.95265319541362, 0.4438286011536056], [127.94142291877507, 0.4594782617986928], [127.92447477289937, 0.45244776616609267], [127.92262622623996, 0.4338663883780474], [127.94088606952023, 0.4298311926220872], [127.95265319541362, 0.4438286011536056]]]}}, {"type": "Feature", "properties": {"layer": "slope", "slope_deg": 5, "site": "pomalaa"}, "geometry": {"type": "Polygon", "coordinates": [[[121.64020345726375, -4.200636045773862], [121.63104272508266, -4.188246397165651], [121.61571698939329, -4.192426046311434], [121.61603652797471, -4.208613886867552], [121.6312065567217, -4.213529916320379], [121.64020345726375, -4.200636045773862]]]}}, {"type": "Feature", "properties": {"layer": "slope", "slope_deg": 14, "site": "pomalaa"}, "geometry": {"type": "Polygon", "coordinates": [[[121.60071412101567, -4.159855374165395], [121.58770979898179, -4.1465581759504895], [121.57190011271231, -4.151508007425208], [121.57253582714192, -4.1677408673368035], [121.58885121139981, -4.176665478588379], [121.60071412101567, -4.159855374165395]]]}}, {"type": "Feature", "properties": {"layer": "slope", "slope_deg": 10, "site": "pomalaa"}, "geometry": {"type": "Polygon", "coordinates": [[[121.61016607464828, -4.201347552135234], [121.5974984067794, -4.18936434304888], [121.58310877371166, -4.193721723682104], [121.58025536224189, -4.211046505371044], [121.5984657325107, -4.216307883699952], [121.61016607464828, -4.201347552135234]]]}}, {"type": "Feature", "properties": {"layer": "slope", "slope_deg": 12, "site": "gag_island"}, "geometry": {"type": "Polygon", "coordinates": [[[129.89858298208623, -0.04460577143138604], [129.88730047912355, -0.03156137872462581], [129.87280978167624, -0.03715702687944108], [129.86862593581262, -0.05509425793386565], [129.88771966764193, -0.05894029374013378], [129.89858298208623, -0.04460577143138604]]]}}, {"type": "Feature", "properties": {"layer": "slope", "slope_deg": 9, "site": "gag_island"}, "geometry": {"type": "Polygon", "coordinates": [[[129.91892033791268, -0.07147443110941071], [129.90760571623457, -0.056134452408064375], [129.8902782573751, -0.06250657309265678], [129.8904132753975, -0.08034419279083971], [129.90703379535483, -0.08505421833467142], [129.91892033791268, -0.07147443110941071]]]}}, {"type": "Feature", "properties": {"layer": "slope", "slope_deg": 14, "site": "gag_island"}, "geometry": {"type": "Polygon", "coordinates": [[[129.8804109494866, -0.06991150029642787], [129.86775938525642, -0.055659214933103676], [129.85075889016164, -0.060924425793392835], [129.8531866962955, -0.07713467039346045], [129.86827604477344, -0.08575390014957869], [129.8804109494866, -0.06991150029642787]]]}}, {"type": "Feature", "properties": {"layer": "slope", "slope_deg": 9, "site": "obi_island"}, "geometry": {"type": "Polygon", "coordinates": [[[127.74789294524446, -1.5258038587412546], [127.74002154973984, -1.5112116060019738], [127.72314606018227, -1.516987861488103], [127.72374220098843, -1.5341867343460553], [127.7402657891456, -1.5411478030787664], [127.74789294524446, -1.5258038587412546]]]}}, {"type": "Feature", "properties": {"layer": "slope", "slope_deg": 14, "site": "obi_island"}, "geometry": {"type": "Polygon", "coordinates": [[[127.69772423411138, -1.526555624535221], [127.68398158607259, -1.514774582830444], [127.66833782454607, -1.5179708931763238], [127.66998917266801, -1.5339405812549922], [127.68528663427945, -1.542353191621488], [127.69772423411138, -1.526555624535221]]]}}, {"type": "Feature", "properties": {"layer": "slope", "slope_deg": 7, "site": "obi_island"}, "geometry": {"type": "Polygon", "coordinates": [[[127.70687320188713, -1.5566716845721116], [127.69628090422307, -1.5402968469276126], [127.67915150598964, -1.5480920230809991], [127.67889605537293, -1.5654369418000662], [127.69521360556911, -1.5697617147200245], [127.70687320188713, -1.5566716845721116]]]}}, {"type": "Feature", "properties": {"layer": "slope", "slope_deg": 8, "site": "konawe"}, "geometry": {"type": "Polygon", "coordinates": [[[122.1484638368764, -3.844192265646668], [122.14063485671969, -3.8272226814908863], [122.12201931607773, -3.834673259099136], [122.12101423505901, -3.8544415062983854], [122.13949254384627, -3.8576461722776303], [122.1484638368764, -3.844192265646668]]]}}, {"type": "Feature", "properties": {"layer": "slope", "slope_deg": 7, "site": "konawe"}, "geometry": {"type": "Polygon", "coordinates": [[[122.15475177457955, -3.8341057609780065], [122.14364794444032, -3.8221161941180504], [122.12797779870304, -3.8255510864795625], [122.12605058016482, -3.8440606417052425], [122.14478018742933, -3.8495800134453164], [122.15475177457955, -3.8341057609780065]]]}}, {"type": "Feature", "properties": {"layer": "slope", "slope_deg": 10, "site": "konawe"}, "geometry": {"type": "Polygon", "coordinates": [[[122.1251623144621, -3.8159092168108812], [122.11423927052968, -3.8001176131462824], [122.09458871552644, -3.805360144840699], [122.09557893895081, -3.8257388493510347], [122.11444691019368, -3.832339869651017], [122.1251623144621, -3.8159092168108812]]]}}, {"type": "Feature", "properties": {"layer": "slope", "slope_deg": 11, "site": "tapunopaka"}, "geometry": {"type": "Polygon", "coordinates": [[[122.20823269715802, -3.609046966044798], [122.20025003842295, -3.596277512764459], [122.18321815176776, -3.5996870350673076], [122.18502711759483, -3.6170926064172155], [122.20033629596279, -3.622081892735455], [122.20823269715802, -3.609046966044798]]]}}, {"type": "Feature", "properties": {"layer": "slope", "slope_deg": 13, "site": "tapunopaka"}, "geometry": {"type": "Polygon", "coordinates": [[[122.16963261127196, -3.6065750984284675], [122.16138817848103, -3.590807687701514], [122.14449446148397, -3.59802327533474], [122.143489404051, -3.6158571384903415], [122.16160942258978, -3.6230234285066247], [122.16963261127196, -3.6065750984284675]]]}}, {"type": "Feature", "properties": {"layer": "slope", "slope_deg": 8, "site": "tapunopaka"}, "geometry": {"type": "Polygon", "coordinates": [[[122.19151311337201, -3.6043634037584944], [122.181047796335, -3.5907590086064034], [122.1665306160745, -3.597027616961183], [122.16515085614269, -3.6127016448247007], [122.1803667654234, -3.615871801285686], [122.19151311337201, -3.6043634037584944]]]}}]}