{
  "type": "FeatureCollection",
  "features": [
    {
      "type": "Feature",
      "properties": {
        "name": "East Sulawesi Ophiolite Belt",
        "tier": "HIGH",
        "description": "Nickel laterite district hosting Sorowako, Morowali, Pomalaa, Konawe, Tapunopaka",
        "source": "Sukamto, R. (1975) Geological Map of Indonesia, Ujung Pandang Sheet. GRDC Bandung.",
        "sites": ["sorowako","morowali","pomalaa","konawe","tapunopaka"]
      },
      "geometry": {
        "type": "Polygon",
        "coordinates": [[
          [120.2, -1.0],
          [122.8, -1.5],
          [124.0, -2.0],
          [123.5, -3.0],
          [122.8, -3.5],
          [122.3, -3.8],
          [121.8, -4.5],
          [121.2, -4.6],
          [120.8, -4.0],
          [120.5, -3.5],
          [120.2, -2.5],
          [119.8, -1.8],
          [120.2, -1.0]
        ]]
      }
    },
    {
      "type": "Feature",
      "properties": {
        "name": "Halmahera Ophiolite Belt",
        "tier": "HIGH",
        "description": "Central Halmahera laterite district hosting Weda Bay nickel mine",
        "source": "Hall, R. & Wilson, M.E.J. (2000) Neogene sutures in eastern Indonesia. J. Asian Earth Sci. 18(6), 781–808.",
        "sites": ["weda_bay"]
      },
      "geometry": {
        "type": "Polygon",
        "coordinates": [[
          [127.3, 1.2],
          [128.8, 1.5],
          [129.0, 0.8],
          [128.8, 0.2],
          [128.3, -0.3],
          [127.8, -0.2],
          [127.3, 0.2],
          [127.2, 0.7],
          [127.3, 1.2]
        ]]
      }
    },
    {
      "type": "Feature",
      "properties": {
        "name": "Obi Island Ophiolite",
        "tier": "HIGH",
        "description": "Obi Island nickel laterite district, Harita Group mining area",
        "source": "Mindat.org Obi Island locality 453808; Earthworks (2025) Obi Island report.",
        "sites": ["obi_island"]
      },
      "geometry": {
        "type": "Polygon",
        "coordinates": [[
          [127.4, -1.35],
          [127.85, -1.35],
          [127.95, -1.55],
          [127.85, -1.75],
          [127.5, -1.75],
          [127.35, -1.55],
          [127.4, -1.35]
        ]]
      }
    },
    {
      "type": "Feature",
      "properties": {
        "name": "Waigeo-Gag Ophiolite Belt",
        "tier": "HIGH",
        "description": "Gag Island and Waigeo laterite district, Antam Gag Nikel operation",
        "source": "GRDC Papua geological map sheet; Antam annual report.",
        "sites": ["gag_island"]
      },
      "geometry": {
        "type": "Polygon",
        "coordinates": [[
          [129.6, -0.4],
          [130.2, -0.3],
          [130.5, 0.1],
          [130.3, 0.4],
          [129.8, 0.3],
          [129.4, 0.0],
          [129.5, -0.3],
          [129.6, -0.4]
        ]]
      }
    },
    {
      "type": "Feature",
      "properties": {
        "name": "Southeast Sulawesi Nickel District",
        "tier": "MEDIUM",
        "description": "Bombana and Kabaena laterite occurrences, smaller scale deposits",
        "source": "Simandjuntak et al. (1994) Geological Map of Kolaka Sheet, GRDC.",
        "sites": []
      },
      "geometry": {
        "type": "Polygon",
        "coordinates": [[
          [121.0, -4.5],
          [122.0, -4.5],
          [122.5, -5.0],
          [122.3, -5.5],
          [121.5, -5.3],
          [120.8, -5.0],
          [121.0, -4.5]
        ]]
      }
    }
  ]
}
