{
  "type": "FeatureCollection",
  "name": "study_grid_halmahera_weda_bay",
  "features": [
    {
      "type": "Feature",
      "properties": {
        "grid_id": "H001",
        "location_label": "Weda Bay - Halmahera nickel laterite",
        "lithology": "peridotite_simulated",
        "slope_deg": 6.4,
        "distance_to_river_m": 330,
        "distance_to_road_m": 2657,
        "legal_status": "allowed",
        "distance_to_smelter_km": 49.9,
        "area_ha": 140.6
      },
      "geometry": {
        "type": "Polygon",
        "coordinates": [
          [
            [
              127.65,
              0.35
            ],
            [
              127.666,
              0.35
            ],
            [
              127.666,
              0.366
            ],
            [
              127.65,
              0.366
            ],
            [
              127.65,
              0.35
            ]
          ]
        ]
      }
    },
    {
      "type": "Feature",
      "properties": {
        "grid_id": "H002",
        "location_label": "Weda Bay - Halmahera nickel laterite",
        "lithology": "mafic_volcanic_simulated",
        "slope_deg": 8.8,
        "distance_to_river_m": 113,
        "distance_to_road_m": 1000,
        "legal_status": "allowed",
        "distance_to_smelter_km": 44.7,
        "area_ha": 130.3
      },
      "geometry": {
        "type": "Polygon",
        "coordinates": [
          [
            [
              127.666,
              0.35
            ],
            [
              127.682,
              0.35
            ],
            [
              127.682,
              0.366
            ],
            [
              127.666,
              0.366
            ],
            [
              127.666,
              0.35
            ]
          ]
        ]
      }
    },
    {
      "type": "Feature",
      "properties": {
        "grid_id": "H003",
        "location_label": "Weda Bay - Halmahera nickel laterite",
        "lithology": "serpentinite_simulated",
        "slope_deg": 12.4,
        "distance_to_river_m": 690,
        "distance_to_road_m": 1005,
        "legal_status": "allowed",
        "distance_to_smelter_km": 41.9,
        "area_ha": 135.4
      },
      "geometry": {
        "type": "Polygon",
        "coordinates": [
          [
            [
              127.682,
              0.35
            ],
            [
              127.698,
              0.35
            ],
            [
              127.698,
              0.366
            ],
            [
              127.682,
              0.366
            ],
            [
              127.682,
              0.35
            ]
          ]
        ]
      }
    },
    {
      "type": "Feature",
      "properties": {
        "grid_id": "H004",
        "location_label": "Weda Bay - Halmahera nickel laterite",
        "lithology": "ultramafic_simulated",
        "slope_deg": 14.9,
        "distance_to_river_m": 862,
        "distance_to_road_m": 1389,
        "legal_status": "allowed",
        "distance_to_smelter_km": 42.6,
        "area_ha": 109.3
      },
      "geometry": {
        "type": "Polygon",
        "coordinates": [
          [
            [
              127.698,
              0.35
            ],
            [
              127.714,
              0.35
            ],
            [
              127.714,
              0.366
            ],
            [
              127.698,
              0.366
            ],
            [
              127.698,
              0.35
            ]
          ]
        ]
      }
    },
    {
      "type": "Feature",
      "properties": {
        "grid_id": "H005",
        "location_label": "Weda Bay - Halmahera nickel laterite",
        "lithology": "alluvium",
        "slope_deg": 3.5,
        "distance_to_river_m": 188,
        "distance_to_road_m": 3012,
        "legal_status": "allowed",
        "distance_to_smelter_km": 46.4,
        "area_ha": 136.2
      },
      "geometry": {
        "type": "Polygon",
        "coordinates": [
          [
            [
              127.714,
              0.35
            ],
            [
              127.73,
              0.35
            ],
            [
              127.73,
              0.366
            ],
            [
              127.714,
              0.366
            ],
            [
              127.714,
              0.35
            ]
          ]
        ]
      }
    },
    {
      "type": "Feature",
      "properties": {
        "grid_id": "H006",
        "location_label": "Weda Bay - Halmahera nickel laterite",
        "lithology": "ultramafic_simulated",
        "slope_deg": 10.6,
        "distance_to_river_m": 1170,
        "distance_to_road_m": 1511,
        "legal_status": "conditional",
        "distance_to_smelter_km": 46.0,
        "area_ha": 133.1
      },
      "geometry": {
        "type": "Polygon",
        "coordinates": [
          [
            [
              127.65,
              0.366
            ],
            [
              127.666,
              0.366
            ],
            [
              127.666,
              0.382
            ],
            [
              127.65,
              0.382
            ],
            [
              127.65,
              0.366
            ]
          ]
        ]
      }
    },
    {
      "type": "Feature",
      "properties": {
        "grid_id": "H007",
        "location_label": "Weda Bay - Halmahera nickel laterite",
        "lithology": "ultramafic_simulated",
        "slope_deg": 15.8,
        "distance_to_river_m": 727,
        "distance_to_road_m": 2555,
        "legal_status": "conditional",
        "distance_to_smelter_km": 39.5,
        "area_ha": 102.7
      },
      "geometry": {
        "type": "Polygon",
        "coordinates": [
          [
            [
              127.666,
              0.366
            ],
            [
              127.682,
              0.366
            ],
            [
              127.682,
              0.382
            ],
            [
              127.666,
              0.382
            ],
            [
              127.666,
              0.366
            ]
          ]
        ]
      }
    },
    {
      "type": "Feature",
      "properties": {
        "grid_id": "H008",
        "location_label": "Weda Bay - Halmahera nickel laterite",
        "lithology": "serpentinite_simulated",
        "slope_deg": 3.3,
        "distance_to_river_m": 341,
        "distance_to_road_m": 623,
        "legal_status": "allowed",
        "distance_to_smelter_km": 35.3,
        "area_ha": 116.7
      },
      "geometry": {
        "type": "Polygon",
        "coordinates": [
          [
            [
              127.682,
              0.366
            ],
            [
              127.698,
              0.366
            ],
            [
              127.698,
              0.382
            ],
            [
              127.682,
              0.382
            ],
            [
              127.682,
              0.366
            ]
          ]
        ]
      }
    },
    {
      "type": "Feature",
      "properties": {
        "grid_id": "H009",
        "location_label": "Weda Bay - Halmahera nickel laterite",
        "lithology": "peridotite_simulated",
        "slope_deg": 7.9,
        "distance_to_river_m": 315,
        "distance_to_road_m": 1154,
        "legal_status": "allowed",
        "distance_to_smelter_km": 36.4,
        "area_ha": 156.2
      },
      "geometry": {
        "type": "Polygon",
        "coordinates": [
          [
            [
              127.698,
              0.366
            ],
            [
              127.714,
              0.366
            ],
            [
              127.714,
              0.382
            ],
            [
              127.698,
              0.382
            ],
            [
              127.698,
              0.366
            ]
          ]
        ]
      }
    },
    {
      "type": "Feature",
      "properties": {
        "grid_id": "H010",
        "location_label": "Weda Bay - Halmahera nickel laterite",
        "lithology": "peridotite_simulated",
        "slope_deg": 4.7,
        "distance_to_river_m": 897,
        "distance_to_road_m": 823,
        "legal_status": "conditional",
        "distance_to_smelter_km": 41.8,
        "area_ha": 122.8
      },
      "geometry": {
        "type": "Polygon",
        "coordinates": [
          [
            [
              127.714,
              0.366
            ],
            [
              127.73,
              0.366
            ],
            [
              127.73,
              0.382
            ],
            [
              127.714,
              0.382
            ],
            [
              127.714,
              0.366
            ]
          ]
        ]
      }
    },
    {
      "type": "Feature",
      "properties": {
        "grid_id": "H011",
        "location_label": "Weda Bay - Halmahera nickel laterite",
        "lithology": "alluvium",
        "slope_deg": 10.9,
        "distance_to_river_m": 847,
        "distance_to_road_m": 2997,
        "legal_status": "conditional",
        "distance_to_smelter_km": 43.8,
        "area_ha": 146.6
      },
      "geometry": {
        "type": "Polygon",
        "coordinates": [
          [
            [
              127.65,
              0.382
            ],
            [
              127.666,
              0.382
            ],
            [
              127.666,
              0.398
            ],
            [
              127.65,
              0.398
            ],
            [
              127.65,
              0.382
            ]
          ]
        ]
      }
    },
    {
      "type": "Feature",
      "properties": {
        "grid_id": "H012",
        "location_label": "Weda Bay - Halmahera nickel laterite",
        "lithology": "serpentinite_simulated",
        "slope_deg": 7.0,
        "distance_to_river_m": 380,
        "distance_to_road_m": 975,
        "legal_status": "allowed",
        "distance_to_smelter_km": 36.0,
        "area_ha": 156.6
      },
      "geometry": {
        "type": "Polygon",
        "coordinates": [
          [
            [
              127.666,
              0.382
            ],
            [
              127.682,
              0.382
            ],
            [
              127.682,
              0.398
            ],
            [
              127.666,
              0.398
            ],
            [
              127.666,
              0.382
            ]
          ]
        ]
      }
    },
    {
      "type": "Feature",
      "properties": {
        "grid_id": "H013",
        "location_label": "Weda Bay - Halmahera nickel laterite",
        "lithology": "mafic_volcanic_simulated",
        "slope_deg": 12.5,
        "distance_to_river_m": 523,
        "distance_to_road_m": 3227,
        "legal_status": "allowed",
        "distance_to_smelter_km": 29.2,
        "area_ha": 127.5
      },
      "geometry": {
        "type": "Polygon",
        "coordinates": [
          [
            [
              127.682,
              0.382
            ],
            [
              127.698,
              0.382
            ],
            [
              127.698,
              0.398
            ],
            [
              127.682,
              0.398
            ],
            [
              127.682,
              0.382
            ]
          ]
        ]
      }
    },
    {
      "type": "Feature",
      "properties": {
        "grid_id": "H014",
        "location_label": "Weda Bay - Halmahera nickel laterite",
        "lithology": "serpentinite_simulated",
        "slope_deg": 11.0,
        "distance_to_river_m": 374,
        "distance_to_road_m": 2171,
        "legal_status": "allowed",
        "distance_to_smelter_km": 31.4,
        "area_ha": 153.9
      },
      "geometry": {
        "type": "Polygon",
        "coordinates": [
          [
            [
              127.698,
              0.382
            ],
            [
              127.714,
              0.382
            ],
            [
              127.714,
              0.398
            ],
            [
              127.698,
              0.398
            ],
            [
              127.698,
              0.382
            ]
          ]
        ]
      }
    },
    {
      "type": "Feature",
      "properties": {
        "grid_id": "H015",
        "location_label": "Weda Bay - Halmahera nickel laterite",
        "lithology": "serpentinite_simulated",
        "slope_deg": 18.0,
        "distance_to_river_m": 651,
        "distance_to_road_m": 591,
        "legal_status": "allowed",
        "distance_to_smelter_km": 38.9,
        "area_ha": 102.8
      },
      "geometry": {
        "type": "Polygon",
        "coordinates": [
          [
            [
              127.714,
              0.382
            ],
            [
              127.73,
              0.382
            ],
            [
              127.73,
              0.398
            ],
            [
              127.714,
              0.398
            ],
            [
              127.714,
              0.382
            ]
          ]
        ]
      }
    },
    {
      "type": "Feature",
      "properties": {
        "grid_id": "H016",
        "location_label": "Weda Bay - Halmahera nickel laterite",
        "lithology": "serpentinite_simulated",
        "slope_deg": 14.7,
        "distance_to_river_m": 553,
        "distance_to_road_m": 503,
        "legal_status": "conditional",
        "distance_to_smelter_km": 43.8,
        "area_ha": 122.9
      },
      "geometry": {
        "type": "Polygon",
        "coordinates": [
          [
            [
              127.65,
              0.398
            ],
            [
              127.666,
              0.398
            ],
            [
              127.666,
              0.414
            ],
            [
              127.65,
              0.414
            ],
            [
              127.65,
              0.398
            ]
          ]
        ]
      }
    },
    {
      "type": "Feature",
      "properties": {
        "grid_id": "H017",
        "location_label": "Weda Bay - Halmahera nickel laterite",
        "lithology": "alluvium",
        "slope_deg": 17.5,
        "distance_to_river_m": 1044,
        "distance_to_road_m": 337,
        "legal_status": "allowed",
        "distance_to_smelter_km": 36.0,
        "area_ha": 143.2
      },
      "geometry": {
        "type": "Polygon",
        "coordinates": [
          [
            [
              127.666,
              0.398
            ],
            [
              127.682,
              0.398
            ],
            [
              127.682,
              0.414
            ],
            [
              127.666,
              0.414
            ],
            [
              127.666,
              0.398
            ]
          ]
        ]
      }
    },
    {
      "type": "Feature",
      "properties": {
        "grid_id": "H018",
        "location_label": "Weda Bay - Halmahera nickel laterite",
        "lithology": "ultramafic_simulated",
        "slope_deg": 6.3,
        "distance_to_river_m": 798,
        "distance_to_road_m": 657,
        "legal_status": "allowed",
        "distance_to_smelter_km": 29.2,
        "area_ha": 126.1
      },
      "geometry": {
        "type": "Polygon",
        "coordinates": [
          [
            [
              127.682,
              0.398
            ],
            [
              127.698,
              0.398
            ],
            [
              127.698,
              0.414
            ],
            [
              127.682,
              0.414
            ],
            [
              127.682,
              0.398
            ]
          ]
        ]
      }
    },
    {
      "type": "Feature",
      "properties": {
        "grid_id": "H019",
        "location_label": "Weda Bay - Halmahera nickel laterite",
        "lithology": "peridotite_simulated",
        "slope_deg": 16.0,
        "distance_to_river_m": 375,
        "distance_to_road_m": 1902,
        "legal_status": "no-go",
        "distance_to_smelter_km": 31.4,
        "area_ha": 110.7
      },
      "geometry": {
        "type": "Polygon",
        "coordinates": [
          [
            [
              127.698,
              0.398
            ],
            [
              127.714,
              0.398
            ],
            [
              127.714,
              0.414
            ],
            [
              127.698,
              0.414
            ],
            [
              127.698,
              0.398
            ]
          ]
        ]
      }
    },
    {
      "type": "Feature",
      "properties": {
        "grid_id": "H020",
        "location_label": "Weda Bay - Halmahera nickel laterite",
        "lithology": "mafic_volcanic_simulated",
        "slope_deg": 6.8,
        "distance_to_river_m": 796,
        "distance_to_road_m": 2249,
        "legal_status": "no-go",
        "distance_to_smelter_km": 38.9,
        "area_ha": 109.2
      },
      "geometry": {
        "type": "Polygon",
        "coordinates": [
          [
            [
              127.714,
              0.398
            ],
            [
              127.73,
              0.398
            ],
            [
              127.73,
              0.414
            ],
            [
              127.714,
              0.414
            ],
            [
              127.714,
              0.398
            ]
          ]
        ]
      }
    },
    {
      "type": "Feature",
      "properties": {
        "grid_id": "H021",
        "location_label": "Weda Bay - Halmahera nickel laterite",
        "lithology": "ultramafic_simulated",
        "slope_deg": 14.5,
        "distance_to_river_m": 674,
        "distance_to_road_m": 302,
        "legal_status": "allowed",
        "distance_to_smelter_km": 46.0,
        "area_ha": 119.4
      },
      "geometry": {
        "type": "Polygon",
        "coordinates": [
          [
            [
              127.65,
              0.414
            ],
            [
              127.666,
              0.414
            ],
            [
              127.666,
              0.43
            ],
            [
              127.65,
              0.43
            ],
            [
              127.65,
              0.414
            ]
          ]
        ]
      }
    },
    {
      "type": "Feature",
      "properties": {
        "grid_id": "H022",
        "location_label": "Weda Bay - Halmahera nickel laterite",
        "lithology": "serpentinite_simulated",
        "slope_deg": 16.1,
        "distance_to_river_m": 1011,
        "distance_to_road_m": 1284,
        "legal_status": "no-go",
        "distance_to_smelter_km": 39.5,
        "area_ha": 103.5
      },
      "geometry": {
        "type": "Polygon",
        "coordinates": [
          [
            [
              127.666,
              0.414
            ],
            [
              127.682,
              0.414
            ],
            [
              127.682,
              0.43
            ],
            [
              127.666,
              0.43
            ],
            [
              127.666,
              0.414
            ]
          ]
        ]
      }
    },
    {
      "type": "Feature",
      "properties": {
        "grid_id": "H023",
        "location_label": "Weda Bay - Halmahera nickel laterite",
        "lithology": "mafic_volcanic_simulated",
        "slope_deg": 3.4,
        "distance_to_river_m": 624,
        "distance_to_road_m": 521,
        "legal_status": "no-go",
        "distance_to_smelter_km": 35.3,
        "area_ha": 145.6
      },
      "geometry": {
        "type": "Polygon",
        "coordinates": [
          [
            [
              127.682,
              0.414
            ],
            [
              127.698,
              0.414
            ],
            [
              127.698,
              0.43
            ],
            [
              127.682,
              0.43
            ],
            [
              127.682,
              0.414
            ]
          ]
        ]
      }
    },
    {
      "type": "Feature",
      "properties": {
        "grid_id": "H024",
        "location_label": "Weda Bay - Halmahera nickel laterite",
        "lithology": "ultramafic_simulated",
        "slope_deg": 9.6,
        "distance_to_river_m": 696,
        "distance_to_road_m": 1148,
        "legal_status": "allowed",
        "distance_to_smelter_km": 36.4,
        "area_ha": 152.3
      },
      "geometry": {
        "type": "Polygon",
        "coordinates": [
          [
            [
              127.698,
              0.414
            ],
            [
              127.714,
              0.414
            ],
            [
              127.714,
              0.43
            ],
            [
              127.698,
              0.43
            ],
            [
              127.698,
              0.414
            ]
          ]
        ]
      }
    },
    {
      "type": "Feature",
      "properties": {
        "grid_id": "H025",
        "location_label": "Weda Bay - Halmahera nickel laterite",
        "lithology": "peridotite_simulated",
        "slope_deg": 10.6,
        "distance_to_river_m": 898,
        "distance_to_road_m": 944,
        "legal_status": "allowed",
        "distance_to_smelter_km": 41.8,
        "area_ha": 118.7
      },
      "geometry": {
        "type": "Polygon",
        "coordinates": [
          [
            [
              127.714,
              0.414
            ],
            [
              127.73,
              0.414
            ],
            [
              127.73,
              0.43
            ],
            [
              127.714,
              0.43
            ],
            [
              127.714,
              0.414
            ]
          ]
        ]
      }
    },
    {
      "type": "Feature",
      "properties": {
        "grid_id": "H026",
        "location_label": "Weda Bay - Halmahera nickel laterite",
        "lithology": "alluvium",
        "slope_deg": 9.0,
        "distance_to_river_m": 660,
        "distance_to_road_m": 687,
        "legal_status": "conditional",
        "distance_to_smelter_km": 49.9,
        "area_ha": 113.5
      },
      "geometry": {
        "type": "Polygon",
        "coordinates": [
          [
            [
              127.65,
              0.43
            ],
            [
              127.666,
              0.43
            ],
            [
              127.666,
              0.446
            ],
            [
              127.65,
              0.446
            ],
            [
              127.65,
              0.43
            ]
          ]
        ]
      }
    },
    {
      "type": "Feature",
      "properties": {
        "grid_id": "H027",
        "location_label": "Weda Bay - Halmahera nickel laterite",
        "lithology": "serpentinite_simulated",
        "slope_deg": 5.7,
        "distance_to_river_m": 327,
        "distance_to_road_m": 527,
        "legal_status": "allowed",
        "distance_to_smelter_km": 44.7,
        "area_ha": 137.9
      },
      "geometry": {
        "type": "Polygon",
        "coordinates": [
          [
            [
              127.666,
              0.43
            ],
            [
              127.682,
              0.43
            ],
            [
              127.682,
              0.446
            ],
            [
              127.666,
              0.446
            ],
            [
              127.666,
              0.43
            ]
          ]
        ]
      }
    },
    {
      "type": "Feature",
      "properties": {
        "grid_id": "H028",
        "location_label": "Weda Bay - Halmahera nickel laterite",
        "lithology": "serpentinite_simulated",
        "slope_deg": 15.8,
        "distance_to_river_m": 159,
        "distance_to_road_m": 1062,
        "legal_status": "no-go",
        "distance_to_smelter_km": 41.9,
        "area_ha": 140.1
      },
      "geometry": {
        "type": "Polygon",
        "coordinates": [
          [
            [
              127.682,
              0.43
            ],
            [
              127.698,
              0.43
            ],
            [
              127.698,
              0.446
            ],
            [
              127.682,
              0.446
            ],
            [
              127.682,
              0.43
            ]
          ]
        ]
      }
    },
    {
      "type": "Feature",
      "properties": {
        "grid_id": "H029",
        "location_label": "Weda Bay - Halmahera nickel laterite",
        "lithology": "serpentinite_simulated",
        "slope_deg": 17.0,
        "distance_to_river_m": 720,
        "distance_to_road_m": 1813,
        "legal_status": "allowed",
        "distance_to_smelter_km": 42.6,
        "area_ha": 147.1
      },
      "geometry": {
        "type": "Polygon",
        "coordinates": [
          [
            [
              127.698,
              0.43
            ],
            [
              127.714,
              0.43
            ],
            [
              127.714,
              0.446
            ],
            [
              127.698,
              0.446
            ],
            [
              127.698,
              0.43
            ]
          ]
        ]
      }
    },
    {
      "type": "Feature",
      "properties": {
        "grid_id": "H030",
        "location_label": "Weda Bay - Halmahera nickel laterite",
        "lithology": "ultramafic_simulated",
        "slope_deg": 3.6,
        "distance_to_river_m": 563,
        "distance_to_road_m": 1655,
        "legal_status": "allowed",
        "distance_to_smelter_km": 46.4,
        "area_ha": 128.0
      },
      "geometry": {
        "type": "Polygon",
        "coordinates": [
          [
            [
              127.714,
              0.43
            ],
            [
              127.73,
              0.43
            ],
            [
              127.73,
              0.446
            ],
            [
              127.714,
              0.446
            ],
            [
              127.714,
              0.43
            ]
          ]
        ]
      }
    }
  ]
}